{"type":"FeatureCollection","features":[{"type":"Feature","properties":{},"geometry":{"type":"Polygon","coordinates":[[[118,30],[140,30],[140,45],[118,45],[118,30]],[[129.578,36.0325],[129.5775,36.0265],[129.585,36.0165],[129.578,36.012],[129.5665,35.9955],[129.5675,35.9895],[129.5565,35.9905],[129.552,35.9855],[129.5545,35.968],[129.5505,35.96],[129.54,35.949],[129.53,35.935],[129.519,35.927],[129.52,35.9185],[129.526,35.908],[129.535,35.9],[129.5275,35.8975],[129.5255,35.8885],[129.5205,35.8815],[129.52,35.8725],[129.534,35.872],[129.5275,35.8635],[129.525,35.8525],[129.5185,35.842],[129.5095,35.8235],[129.5145,35.816],[129.506,35.8085],[129.5015,35.793],[129.493,35.791],[129.493,35.7805],[129.497,35.7735],[129.4935,35.7515],[129.4845,35.7435],[129.4855,35.729],[129.4815,35.7225],[129.48,35.713],[129.473,35.7035],[129.476,35.698],[129.4755,35.6855],[129.467,35.679],[129.465,35.6665],[129.457,35.666],[129.45,35.651],[129.4445,35.654],[129.4285,35.656],[129.4125,35.664],[129.381,35.671],[129.3735,35.67],[129.3645,35.679],[129.354,35.6795],[129.3415,35.671],[129.3305,35.666],[129.324,35.659],[129.311,35.66],[129.3035,35.657],[129.303,35.6485],[129.292,35.645],[129.2845,35.6515],[129.2695,35.651],[129.26,35.6545],[129.254,35.6665],[129.26,35.673],[129.2625,35.6915],[129.256,35.701],[129.234,35.7035],[129.214,35.715],[129.207,35.7215],[129.1975,35.716],[129.1815,35.723],[129.177,35.7155],[129.1605,35.715],[129.1545,35.7215],[129.1455,35.7245],[129.135,35.712],[129.1235,35.7075],[129.1015,35.706],[129.091,35.7025],[129.0775,35.693],[129.0695,35.6805],[129.0675,35.662],[129.081,35.6475],[129.074,35.64],[129.0645,35.646],[129.0475,35.65],[129.044,35.6415],[129.035,35.632],[129.027,35.6365],[129.0075,35.627],[128.9995,35.6165],[128.9855,35.608],[128.9605,35.6195],[128.941,35.633],[128.923,35.638],[128.923,35.647],[128.915,35.6455],[128.9075,35.635],[128.8855,35.63],[128.8745,35.635],[128.8725,35.621],[128.8655,35.611],[128.859,35.6065],[128.8535,35.5965],[128.843,35.589],[128.8335,35.5975],[128.8235,35.5965],[128.8005,35.5855],[128.796,35.5735],[128.787,35.566],[128.768,35.5705],[128.754,35.57],[128.725,35.5805],[128.7035,35.5785],[128.696,35.583],[128.6915,35.5945],[128.6725,35.596],[128.6635,35.5945],[128.658,35.5975],[128.6435,35.5925],[128.636,35.584],[128.631,35.5865],[128.607,35.5805],[128.5935,35.5845],[128.585,35.586],[128.5745,35.592],[128.5725,35.5975],[128.5595,35.6035],[128.558,35.615],[128.5365,35.6235],[128.538,35.632],[128.5345,35.644],[128.5385,35.655],[128.5315,35.662],[128.5265,35.674],[128.5335,35.682],[128.5315,35.688],[128.5325,35.7055],[128.529,35.714],[128.544,35.7195],[128.5595,35.7285],[128.566,35.7365],[128.5715,35.7345],[128.582,35.739],[128.5895,35.732],[128.596,35.737],[128.6065,35.739],[128.6165,35.737],[128.6105,35.7255],[128.6165,35.72],[128.614,35.7105],[128.6205,35.7045],[128.646,35.7085],[128.658,35.7185],[128.6635,35.7205],[128.6835,35.722],[128.692,35.7325],[128.6895,35.74],[128.6945,35.744],[128.696,35.7565],[128.6925,35.76],[128.6825,35.79],[128.6945,35.7965],[128.6975,35.794],[128.7115,35.805],[128.7175,35.8065],[128.709,35.8265],[128.7125,35.8305],[128.725,35.8365],[128.726,35.844],[128.725,35.858],[128.736,35.851],[128.7405,35.8515],[128.7515,35.8575],[128.76,35.8655],[128.758,35.878],[128.762,35.883],[128.7575,35.896],[128.7605,35.907],[128.7565,35.915],[128.7445,35.922],[128.7385,35.9285],[128.7455,35.9445],[128.739,35.9555],[128.746,35.971],[128.739,35.9765],[128.7315,35.987],[128.735,35.993],[128.7235,36.006],[128.7005,36.011],[128.695,36.0165],[128.7005,36.0315],[128.697,36.0355],[128.7045,36.0455],[128.7025,36.0555],[128.709,36.064],[128.714,36.0755],[128.724,36.0735],[128.7295,36.081],[128.725,36.0905],[128.7415,36.1005],[128.7515,36.1035],[128.752,36.093],[128.7645,36.1005],[128.791,36.0865],[128.7985,36.085],[128.8165,36.0925],[128.8225,36.1005],[128.831,36.1025],[128.8375,36.1125],[128.85,36.119],[128.853,36.1275],[128.851,36.1385],[128.859,36.1455],[128.8765,36.1425],[128.8915,36.1435],[128.8925,36.1555],[128.9,36.1625],[128.896,36.1735],[128.891,36.1765],[128.881,36.19],[128.8825,36.199],[128.8585,36.208],[128.852,36.215],[128.83,36.2175],[128.814,36.211],[128.804,36.21],[128.803,36.201],[128.796,36.194],[128.77,36.1935],[128.7525,36.2025],[128.7495,36.196],[128.7275,36.201],[128.7085,36.1985],[128.697,36.2025],[128.7,36.209],[128.6945,36.214],[128.683,36.215],[128.6695,36.209],[128.6635,36.2215],[128.6495,36.2175],[128.64,36.208],[128.632,36.216],[128.6355,36.2215],[128.6365,36.233],[128.631,36.239],[128.638,36.247],[128.6405,36.2575],[128.6365,36.261],[128.624,36.267],[128.607,36.271],[128.5985,36.271],[128.5955,36.277],[128.5765,36.2795],[128.5715,36.275],[128.5625,36.277],[128.552,36.275],[128.5455,36.2915],[128.5295,36.294],[128.525,36.3],[128.498,36.3035],[128.473,36.312],[128.473,36.3185],[128.4555,36.3265],[128.4515,36.327],[128.428,36.299],[128.417,36.299],[128.4115,36.2875],[128.4235,36.279],[128.4265,36.2735],[128.4165,36.2575],[128.4215,36.2505],[128.4195,36.2455],[128.424,36.2365],[128.4335,36.235],[128.441,36.218],[128.462,36.2285],[128.478,36.234],[128.486,36.231],[128.489,36.2135],[128.4945,36.2055],[128.4945,36.1975],[128.5035,36.193],[128.5045,36.185],[128.5125,36.191],[128.518,36.2005],[128.524,36.2005],[128.539,36.1935],[128.549,36.178],[128.5545,36.1735],[128.5535,36.1655],[128.5445,36.166],[128.5425,36.155],[128.5505,36.1505],[128.5485,36.131],[128.555,36.1215],[128.562,36.1195],[128.563,36.1115],[128.5635,36.102],[128.5685,36.09],[128.5635,36.0725],[128.569,36.0605],[128.58,36.068],[128.598,36.076],[128.61,36.076],[128.6225,36.0795],[128.6305,36.0775],[128.628,36.068],[128.6295,36.051],[128.623,36.037],[128.6215,36.026],[128.637,36.017],[128.639,36.009],[128.617,36.005],[128.603,35.986],[128.583,35.9775],[128.572,35.9775],[128.556,35.9705],[128.5495,35.9625],[128.5425,35.9745],[128.529,35.9805],[128.527,35.976],[128.535,35.939],[128.5295,35.9235],[128.518,35.913],[128.5115,35.9105],[128.505,35.903],[128.504,35.8905],[128.4945,35.8915],[128.4925,35.8965],[128.4755,35.895],[128.468,35.9],[128.467,35.907],[128.474,35.917],[128.4755,35.936],[128.4625,35.938],[128.441,35.935],[128.425,35.928],[128.4235,35.923],[128.4105,35.9065],[128.4035,35.889],[128.3935,35.883],[128.3855,35.865],[128.39,35.8505],[128.398,35.8495],[128.423,35.8515],[128.46,35.8415],[128.477,35.8275],[128.4805,35.822],[128.476,35.8115],[128.4675,35.8085],[128.4205,35.8095],[128.4075,35.7965],[128.4025,35.7845],[128.3865,35.7635],[128.386,35.755],[128.3925,35.7455],[128.406,35.739],[128.4165,35.7365],[128.4325,35.7255],[128.435,35.7095],[128.433,35.703],[128.418,35.693],[128.375,35.7025],[128.3595,35.7075],[128.351,35.703],[128.3505,35.694],[128.359,35.677],[128.3635,35.671],[128.3815,35.6555],[128.3965,35.648],[128.403,35.642],[128.4015,35.632],[128.3965,35.628],[128.386,35.6125],[128.3775,35.6105],[128.3625,35.612],[128.363,35.6285],[128.355,35.6425],[128.349,35.6465],[128.341,35.644],[128.3295,35.648],[128.2975,35.656],[128.296,35.6505],[128.2785,35.652],[128.2765,35.6465],[128.261,35.6425],[128.2585,35.6475],[128.244,35.6555],[128.236,35.6515],[128.2355,35.6405],[128.228,35.6395],[128.201,35.644],[128.199,35.649],[128.184,35.6585],[128.1635,35.6535],[128.1575,35.658],[128.1625,35.672],[128.1795,35.673],[128.1945,35.6845],[128.2015,35.684],[128.2045,35.6975],[128.201,35.706],[128.2015,35.723],[128.1965,35.7305],[128.198,35.7365],[128.1945,35.738],[128.1895,35.7525],[128.165,35.7635],[128.1615,35.7695],[128.164,35.777],[128.155,35.7865],[128.14,35.784],[128.129,35.7895],[128.1215,35.8035],[128.1255,35.823],[128.117,35.826],[128.1085,35.824],[128.0955,35.8325],[128.0905,35.831],[128.0785,35.839],[128.0705,35.8405],[128.051,35.8295],[128.0315,35.8355],[128.012,35.829],[127.9975,35.838],[127.9855,35.8575],[127.982,35.859],[127.9735,35.851],[127.96,35.8595],[127.951,35.8615],[127.9425,35.8545],[127.9325,35.856],[127.933,35.864],[127.928,35.881],[127.919,35.8895],[127.9135,35.8905],[127.8935,35.8865],[127.885,35.893],[127.883,35.8995],[127.889,35.91],[127.882,35.92],[127.882,35.9275],[127.9065,35.9405],[127.9115,35.9495],[127.904,35.9545],[127.8965,35.972],[127.8935,35.9845],[127.8865,35.992],[127.876,35.9965],[127.879,36.0015],[127.8755,36.0165],[127.877,36.0225],[127.888,36.035],[127.9035,36.039],[127.9095,36.0495],[127.917,36.0545],[127.9315,36.05],[127.9465,36.0565],[127.952,36.065],[127.9615,36.0685],[127.9615,36.083],[127.958,36.095],[127.9685,36.107],[127.967,36.1185],[127.977,36.122],[127.9875,36.1295],[127.9875,36.1475],[127.9965,36.1535],[127.9895,36.1645],[127.9835,36.17],[127.9845,36.177],[127.9755,36.188],[127.986,36.2005],[127.9925,36.2],[127.9975,36.206],[128.0135,36.209],[128.0265,36.2055],[128.0385,36.194],[128.0525,36.201],[128.063,36.199],[128.0505,36.206],[128.0505,36.2155],[128.0425,36.2175],[128.0395,36.229],[128.03,36.2405],[128.0395,36.251],[128.0445,36.2525],[128.048,36.257],[128.033,36.262],[128.026,36.268],[128.012,36.2715],[128.0005,36.2665],[127.982,36.264],[127.979,36.254],[127.971,36.2505],[127.948,36.2575],[127.9475,36.267],[127.938,36.269],[127.931,36.278],[127.9135,36.281],[127.907,36.286],[127.905,36.3025],[127.892,36.292],[127.8845,36.2735],[127.8625,36.2775],[127.8515,36.2755],[127.847,36.3005],[127.841,36.3095],[127.8505,36.3205],[127.852,36.3305],[127.8675,36.3365],[127.875,36.3455],[127.8815,36.345],[127.8915,36.3595],[127.8865,36.364],[127.884,36.3795],[127.875,36.391],[127.8685,36.391],[127.8635,36.403],[127.873,36.41],[127.883,36.4235],[127.8755,36.4285],[127.873,36.4415],[127.8825,36.461],[127.879,36.466],[127.8805,36.4805],[127.875,36.483],[127.8805,36.4935],[127.8885,36.493],[127.907,36.5075],[127.902,36.5125],[127.902,36.528],[127.874,36.5375],[127.8705,36.543],[127.8735,36.5555],[127.862,36.5675],[127.848,36.5715],[127.843,36.5695],[127.83,36.5745],[127.824,36.5715],[127.816,36.578],[127.8045,36.5815],[127.7975,36.592],[127.7985,36.6025],[127.8065,36.603],[127.824,36.6125],[127.842,36.6085],[127.8495,36.613],[127.848,36.6335],[127.8615,36.634],[127.8705,36.644],[127.874,36.6555],[127.88,36.6575],[127.8825,36.646],[127.889,36.6405],[127.8895,36.6295],[127.8965,36.6265],[127.9095,36.6255],[127.9205,36.6035],[127.925,36.608],[127.925,36.6155],[127.9315,36.618],[127.936,36.6335],[127.936,36.6435],[127.939,36.6495],[127.9315,36.6535],[127.9325,36.665],[127.9255,36.669],[127.9185,36.668],[127.913,36.6775],[127.892,36.6825],[127.8875,36.679],[127.8775,36.682],[127.8875,36.6915],[127.913,36.6925],[127.9275,36.69],[127.9315,36.6935],[127.9315,36.7065],[127.949,36.706],[127.948,36.7175],[127.952,36.72],[127.957,36.733],[127.961,36.737],[127.971,36.7305],[127.9735,36.7255],[127.987,36.7175],[128.0025,36.7165],[128.0085,36.728],[128.022,36.726],[128.049,36.7075],[128.072,36.708],[128.074,36.7115],[128.069,36.7215],[128.0555,36.7285],[128.0515,36.736],[128.044,36.738],[128.0325,36.7475],[128.032,36.7545],[128.0445,36.771],[128.0445,36.7845],[128.055,36.793],[128.0585,36.816],[128.0675,36.816],[128.0815,36.807],[128.084,36.7995],[128.107,36.806],[128.112,36.819],[128.132,36.8265],[128.136,36.834],[128.145,36.8325],[128.156,36.8235],[128.165,36.82],[128.176,36.821],[128.209,36.8135],[128.217,36.813],[128.2155,36.834],[128.213,36.8395],[128.2155,36.849],[128.237,36.848],[128.234,36.8555],[128.2405,36.871],[128.264,36.864],[128.269,36.86],[128.282,36.8565],[128.287,36.8445],[128.2965,36.8345],[128.3105,36.8285],[128.3165,36.8165],[128.334,36.817],[128.3545,36.809],[128.3565,36.804],[128.3665,36.8005],[128.382,36.814],[128.394,36.8155],[128.4005,36.8125],[128.4205,36.8115],[128.4315,36.824],[128.4345,36.834],[128.4415,36.8375],[128.449,36.849],[128.449,36.8635],[128.4385,36.8735],[128.4245,36.8765],[128.427,36.8895],[128.44,36.9015],[128.4455,36.918],[128.442,36.928],[128.46,36.934],[128.463,36.9475],[128.476,36.957],[128.485,36.9575],[128.4855,36.9615],[128.505,36.969],[128.5135,36.977],[128.516,36.987],[128.526,36.99],[128.538,36.991],[128.5545,36.998],[128.5565,37.0055],[128.57,37.0135],[128.573,37.022],[128.565,37.031],[128.5765,37.0355],[128.584,37.044],[128.592,37.0425],[128.607,37.0435],[128.609,37.0525],[128.6195,37.0495],[128.6305,37.039],[128.6445,37.062],[128.652,37.0655],[128.6575,37.061],[128.6755,37.059],[128.6835,37.0515],[128.6885,37.053],[128.7005,37.041],[128.709,37.039],[128.7185,37.044],[128.7345,37.04],[128.7515,37.0285],[128.7615,37.035],[128.761,37.0435],[128.752,37.0575],[128.757,37.07],[128.765,37.064],[128.7685,37.0725],[128.7775,37.083],[128.785,37.0875],[128.803,37.0855],[128.8085,37.0775],[128.827,37.078],[128.8325,37.0755],[128.836,37.0665],[128.8465,37.052],[128.8665,37.0485],[128.8725,37.0445],[128.8775,37.0525],[128.8955,37.045],[128.8975,37.058],[128.9095,37.067],[128.917,37.0785],[128.9205,37.0905],[128.9445,37.095],[128.9605,37.0775],[128.9695,37.082],[128.993,37.0845],[128.995,37.081],[129.0345,37.076],[129.0505,37.0685],[129.0615,37.0655],[129.068,37.0745],[129.066,37.0785],[129.073,37.091],[129.096,37.1005],[129.1085,37.0935],[129.119,37.093],[129.1275,37.085],[129.1405,37.0815],[129.155,37.07],[129.165,37.07],[129.171,37.06],[129.176,37.0575],[129.1855,37.047],[129.1855,37.042],[129.1945,37.0405],[129.205,37.045],[129.2135,37.0425],[129.225,37.0445],[129.238,37.039],[129.233,37.044],[129.2295,37.056],[129.233,37.064],[129.2255,37.0735],[129.2415,37.0855],[129.2495,37.096],[129.266,37.1025],[129.272,37.117],[129.2765,37.1185],[129.2945,37.1145],[129.298,37.1245],[129.3205,37.136],[129.3245,37.1415],[129.3335,37.142],[129.348,37.1465],[129.3665,37.145],[129.3735,37.135],[129.3735,37.125],[129.3815,37.12],[129.3765,37.1105],[129.3795,37.1],[129.403,37.079],[129.427,37.064],[129.43,37.0585],[129.4185,37.057],[129.4135,37.048],[129.416,37.0355],[129.41,37.0305],[129.4105,37.024],[129.419,37.006],[129.42,36.993],[129.4145,36.989],[129.4095,36.9785],[129.42,36.9515],[129.4215,36.936],[129.418,36.9305],[129.4205,36.923],[129.4165,36.91],[129.421,36.8985],[129.4155,36.89],[129.4215,36.876],[129.4205,36.871],[129.4275,36.8525],[129.434,36.8435],[129.4465,36.8325],[129.446,36.827],[129.4575,36.8155],[129.458,36.8035],[129.463,36.7965],[129.463,36.7885],[129.479,36.768],[129.468,36.757],[129.4695,36.748],[129.478,36.727],[129.4725,36.724],[129.4765,36.6995],[129.4675,36.6895],[129.4655,36.68],[129.459,36.6815],[129.4455,36.6765],[129.4375,36.67],[129.4285,36.6485],[129.424,36.6435],[129.4185,36.64],[129.4175,36.6305],[129.412,36.6225],[129.416,36.605],[129.4105,36.5945],[129.4175,36.5765],[129.4265,36.566],[129.4405,36.552],[129.4405,36.53],[129.445,36.519],[129.444,36.5125],[129.45,36.5125],[129.445,36.4885],[129.4345,36.483],[129.436,36.471],[129.438,36.463],[129.437,36.447],[129.434,36.437],[129.4365,36.429],[129.4305,36.4095],[129.4205,36.3985],[129.3895,36.357],[129.39,36.3475],[129.3805,36.3345],[129.3825,36.322],[129.38,36.318],[129.3795,36.2905],[129.375,36.2885],[129.3815,36.275],[129.3765,36.2685],[129.373,36.2545],[129.386,36.2385],[129.3815,36.2285],[129.386,36.218],[129.3845,36.2125],[129.3725,36.207],[129.373,36.1955],[129.377,36.1895],[129.3925,36.184],[129.3975,36.1685],[129.4005,36.154],[129.3955,36.142],[129.3975,36.135],[129.426,36.1135],[129.441,36.111],[129.4405,36.1005],[129.4305,36.0995],[129.417,36.0815],[129.418,36.0735],[129.4015,36.0695],[129.396,36.0635],[129.387,36.064],[129.3785,36.0555],[129.3735,36.0495],[129.384,36.03],[129.4005,36.021],[129.3985,36.014],[129.417,36.0125],[129.4165,36.0055],[129.432,35.996],[129.4465,35.992],[129.4565,35.9935],[129.4555,36],[129.474,36.013],[129.493,36.019],[129.5035,36.026],[129.504,36.0365],[129.5155,36.0445],[129.5235,36.0545],[129.5405,36.0675],[129.5455,36.084],[129.5555,36.086],[129.562,36.0785],[129.5695,36.079],[129.5685,36.0685],[129.573,36.066],[129.577,36.0495],[129.5835,36.0455],[129.578,36.0325]],[[130.909,37.5285],[130.9195,37.5135],[130.914,37.487],[130.907,37.4765],[130.896,37.4755],[130.884,37.471],[130.8755,37.4605],[130.8745,37.4535],[130.869,37.459],[130.855,37.4605],[130.831,37.4665],[130.8265,37.4725],[130.8135,37.474],[130.801,37.491],[130.805,37.5045],[130.791,37.519],[130.802,37.5205],[130.832,37.5295],[130.8465,37.536],[130.869,37.537],[130.876,37.543],[130.8915,37.5405],[130.899,37.547],[130.9095,37.548],[130.914,37.5355],[130.909,37.5285]]]}}]}