{"type":"FeatureCollection", "features": [
{"type":"Feature","geometry":{"type":"Polygon","coordinates":[[[129.126,35.3],[129.183,35.3],[129.26,35.3],[129.263,35.315],[129.277,35.325],[129.299,35.318],[129.305,35.33],[129.284,35.346],[129.284,35.363],[129.265,35.386],[129.241,35.386],[129.217,35.379],[129.203,35.388],[129.195,35.384],[129.199,35.376],[129.194,35.361],[129.175,35.351],[129.153,35.363],[129.139,35.366],[129.13,35.359],[129.135,35.353],[129.128,35.344],[129.126,35.333],[129.114,35.32],[129.109,35.305],[129.097,35.304],[129.085,35.3],[129.097,35.3],[129.126,35.3]]]},"properties":{"sidonm":"부산광역시"}},
{"type":"Feature","geometry":{"type":"Polygon","coordinates":[[[128.741,35.938],[128.745,35.944],[128.739,35.955],[128.746,35.971],[128.731,35.987],[128.735,35.993],[128.726,36.005],[128.701,36.011],[128.695,36.016],[128.7,36.031],[128.697,36.035],[128.705,36.046],[128.703,36.056],[128.714,36.076],[128.724,36.074],[128.729,36.081],[128.725,36.09],[128.744,36.103],[128.745,36.109],[128.791,36.087],[128.798,36.085],[128.816,36.092],[128.822,36.101],[128.836,36.106],[128.838,36.112],[128.85,36.119],[128.851,36.138],[128.859,36.145],[128.876,36.142],[128.892,36.143],[128.893,36.156],[128.9,36.163],[128.89,36.182],[128.881,36.19],[128.882,36.199],[128.859,36.208],[128.852,36.215],[128.83,36.218],[128.805,36.21],[128.803,36.201],[128.79,36.195],[128.77,36.193],[128.753,36.203],[128.749,36.196],[128.728,36.201],[128.709,36.199],[128.697,36.202],[128.7,36.209],[128.683,36.215],[128.669,36.209],[128.663,36.221],[128.649,36.218],[128.64,36.208],[128.632,36.216],[128.636,36.224],[128.631,36.239],[128.641,36.258],[128.624,36.267],[128.596,36.277],[128.576,36.28],[128.571,36.275],[128.552,36.275],[128.546,36.292],[128.529,36.294],[128.525,36.3],[128.498,36.303],[128.473,36.312],[128.473,36.318],[128.456,36.327],[128.452,36.327],[128.428,36.299],[128.417,36.299],[128.411,36.288],[128.427,36.274],[128.417,36.258],[128.424,36.237],[128.434,36.235],[128.441,36.218],[128.478,36.234],[128.486,36.231],[128.489,36.213],[128.495,36.198],[128.513,36.191],[128.523,36.201],[128.539,36.194],[128.549,36.178],[128.557,36.178],[128.554,36.165],[128.544,36.166],[128.542,36.155],[128.55,36.151],[128.549,36.131],[128.562,36.119],[128.564,36.102],[128.569,36.09],[128.563,36.073],[128.569,36.061],[128.598,36.076],[128.624,36.082],[128.629,36.051],[128.621,36.026],[128.637,36.017],[128.641,36.011],[128.617,36.005],[128.604,35.989],[128.603,35.986],[128.583,35.977],[128.572,35.978],[128.556,35.971],[128.553,35.961],[128.542,35.975],[128.527,35.976],[128.535,35.958],[128.534,35.935],[128.53,35.924],[128.505,35.903],[128.504,35.891],[128.493,35.896],[128.475,35.895],[128.468,35.9],[128.474,35.917],[128.476,35.936],[128.463,35.938],[128.441,35.935],[128.425,35.928],[128.41,35.907],[128.403,35.889],[128.394,35.883],[128.385,35.865],[128.39,35.85],[128.421,35.851],[128.456,35.843],[128.471,35.833],[128.477,35.828],[128.48,35.818],[128.472,35.81],[128.42,35.809],[128.411,35.8],[128.4,35.78],[128.386,35.763],[128.393,35.746],[128.414,35.738],[128.429,35.729],[128.434,35.719],[128.433,35.703],[128.418,35.693],[128.375,35.702],[128.36,35.708],[128.351,35.703],[128.356,35.681],[128.382,35.655],[128.403,35.642],[128.402,35.632],[128.386,35.612],[128.371,35.611],[128.382,35.607],[128.396,35.614],[128.411,35.615],[128.418,35.622],[128.432,35.624],[128.45,35.638],[128.461,35.641],[128.483,35.636],[128.506,35.64],[128.509,35.675],[128.526,35.682],[128.535,35.694],[128.527,35.714],[128.544,35.719],[128.566,35.736],[128.582,35.739],[128.617,35.737],[128.61,35.725],[128.614,35.711],[128.623,35.703],[128.646,35.708],[128.664,35.721],[128.683,35.722],[128.692,35.732],[128.69,35.74],[128.696,35.757],[128.692,35.76],[128.683,35.79],[128.697,35.794],[128.718,35.807],[128.71,35.828],[128.723,35.835],[128.726,35.857],[128.736,35.851],[128.752,35.858],[128.76,35.865],[128.76,35.875],[128.762,35.883],[128.758,35.896],[128.76,35.907],[128.757,35.915],[128.744,35.922],[128.738,35.93],[128.741,35.938]]]},"properties":{"sidonm":"대구광역시"}},
{"type":"Feature","geometry":{"type":"Polygon","coordinates":[[[127.489,36.433],[127.503,36.449],[127.499,36.456],[127.479,36.458],[127.483,36.478],[127.466,36.469],[127.464,36.457],[127.453,36.45],[127.436,36.457],[127.427,36.455],[127.415,36.455],[127.403,36.456],[127.401,36.47],[127.404,36.483],[127.396,36.492],[127.381,36.5],[127.369,36.49],[127.361,36.491],[127.364,36.47],[127.356,36.464],[127.359,36.456],[127.345,36.444],[127.341,36.431],[127.327,36.422],[127.311,36.425],[127.3,36.422],[127.3,36.4],[127.3,36.382],[127.3,36.361],[127.3,36.323],[127.3,36.27],[127.3,36.221],[127.314,36.222],[127.322,36.214],[127.33,36.194],[127.331,36.184],[127.341,36.189],[127.348,36.205],[127.359,36.214],[127.365,36.243],[127.361,36.264],[127.372,36.272],[127.389,36.266],[127.387,36.253],[127.391,36.243],[127.388,36.234],[127.401,36.232],[127.408,36.213],[127.422,36.208],[127.443,36.194],[127.455,36.201],[127.453,36.207],[127.469,36.215],[127.467,36.222],[127.493,36.238],[127.486,36.261],[127.489,36.273],[127.497,36.287],[127.489,36.301],[127.499,36.306],[127.495,36.312],[127.504,36.326],[127.501,36.339],[127.51,36.35],[127.521,36.353],[127.527,36.369],[127.526,36.387],[127.539,36.397],[127.554,36.395],[127.552,36.405],[127.54,36.421],[127.516,36.422],[127.509,36.405],[127.503,36.408],[127.489,36.433]]]},"properties":{"sidonm":"대전광역시"}},
{"type":"Feature","geometry":{"type":"Polygon","coordinates":[[[129.365,35.543],[129.379,35.537],[129.383,35.533],[129.387,35.527],[129.397,35.515],[129.396,35.501],[129.408,35.493],[129.404,35.477],[129.424,35.484],[129.438,35.485],[129.432,35.508],[129.433,35.511],[129.447,35.518],[129.45,35.528],[129.458,35.559],[129.453,35.573],[129.457,35.585],[129.465,35.586],[129.464,35.599],[129.457,35.614],[129.443,35.626],[129.441,35.643],[129.45,35.651],[129.428,35.656],[129.413,35.664],[129.381,35.671],[129.373,35.67],[129.365,35.679],[129.354,35.68],[129.337,35.669],[129.324,35.659],[129.304,35.657],[129.296,35.644],[129.285,35.651],[129.27,35.651],[129.255,35.66],[129.263,35.691],[129.256,35.701],[129.234,35.704],[129.214,35.715],[129.201,35.716],[129.182,35.723],[129.177,35.716],[129.161,35.715],[129.146,35.725],[129.135,35.712],[129.123,35.707],[129.102,35.706],[129.089,35.702],[129.077,35.693],[129.069,35.681],[129.068,35.662],[129.081,35.647],[129.074,35.64],[129.064,35.646],[129.047,35.65],[129.035,35.632],[129.027,35.636],[129.008,35.627],[129.003,35.62],[129.022,35.614],[129.026,35.601],[129.02,35.585],[128.995,35.569],[128.971,35.561],[128.981,35.547],[128.998,35.542],[128.994,35.529],[129.011,35.523],[129.057,35.531],[129.052,35.516],[129.062,35.509],[129.095,35.498],[129.107,35.495],[129.11,35.48],[129.129,35.459],[129.136,35.456],[129.146,35.444],[129.165,35.432],[129.179,35.433],[129.196,35.439],[129.202,35.43],[129.22,35.409],[129.203,35.388],[129.217,35.379],[129.241,35.386],[129.265,35.386],[129.284,35.363],[129.284,35.346],[129.305,35.33],[129.314,35.33],[129.323,35.346],[129.332,35.348],[129.336,35.356],[129.347,35.353],[129.363,35.361],[129.356,35.374],[129.346,35.376],[129.347,35.389],[129.356,35.392],[129.363,35.407],[129.366,35.436],[129.36,35.448],[129.35,35.448],[129.347,35.464],[129.339,35.474],[129.336,35.482],[129.339,35.475],[129.361,35.459],[129.384,35.474],[129.389,35.488],[129.379,35.5],[129.368,35.498],[129.362,35.505],[129.37,35.501],[129.387,35.502],[129.385,35.516],[129.376,35.518],[129.374,35.529],[129.363,35.541],[129.365,35.543]]]},"properties":{"sidonm":"울산광역시"}},
{"type":"Feature","geometry":{"type":"MultiPolygon","coordinates":[[[[127.3,36.578],[127.3,36.558],[127.3,36.546],[127.3,36.531],[127.3,36.523],[127.3,36.493],[127.3,36.491],[127.3,36.478],[127.3,36.422],[127.311,36.425],[127.327,36.422],[127.341,36.431],[127.345,36.444],[127.359,36.456],[127.356,36.464],[127.364,36.47],[127.361,36.491],[127.369,36.49],[127.381,36.5],[127.396,36.492],[127.409,36.495],[127.409,36.507],[127.404,36.517],[127.408,36.527],[127.402,36.541],[127.383,36.542],[127.376,36.561],[127.377,36.567],[127.351,36.562],[127.343,36.565],[127.322,36.583],[127.302,36.582],[127.3,36.585],[127.3,36.578]]],[[[127.3,36.616],[127.3,36.587],[127.307,36.6],[127.3,36.616]]],[[[127.3,36.686],[127.3,36.658],[127.305,36.668],[127.308,36.682],[127.3,36.686]]]]},"properties":{"sidonm":"세종특별자치시"}},
{"type":"Feature","geometry":{"type":"Polygon","coordinates":[[[127.3,37.51],[127.3,37.482],[127.3,37.444],[127.3,37.443],[127.3,37.352],[127.3,37.267],[127.3,37.208],[127.3,37.112],[127.3,37.106],[127.3,37.091],[127.3,37.079],[127.3,37.075],[127.3,37],[127.3,36.947],[127.3,36.94],[127.3,36.929],[127.327,36.936],[127.343,36.944],[127.35,36.953],[127.375,36.948],[127.38,36.959],[127.397,36.964],[127.402,36.968],[127.385,36.985],[127.396,36.998],[127.43,37.002],[127.447,37.011],[127.459,37.025],[127.457,37.041],[127.468,37.053],[127.49,37.053],[127.509,37.049],[127.513,37.056],[127.536,37.054],[127.55,37.045],[127.562,37.045],[127.568,37.048],[127.566,37.063],[127.576,37.074],[127.595,37.074],[127.604,37.069],[127.601,37.085],[127.61,37.086],[127.633,37.098],[127.634,37.124],[127.638,37.141],[127.629,37.154],[127.648,37.151],[127.668,37.137],[127.688,37.135],[127.695,37.14],[127.696,37.152],[127.704,37.156],[127.705,37.167],[127.718,37.184],[127.727,37.183],[127.737,37.21],[127.748,37.217],[127.746,37.23],[127.749,37.247],[127.758,37.258],[127.757,37.265],[127.755,37.298],[127.768,37.303],[127.762,37.321],[127.758,37.346],[127.761,37.364],[127.759,37.367],[127.778,37.371],[127.777,37.383],[127.783,37.39],[127.795,37.424],[127.802,37.435],[127.796,37.464],[127.801,37.47],[127.788,37.476],[127.781,37.488],[127.76,37.492],[127.759,37.504],[127.774,37.506],[127.805,37.53],[127.806,37.535],[127.842,37.539],[127.849,37.553],[127.84,37.56],[127.813,37.565],[127.81,37.573],[127.793,37.585],[127.783,37.579],[127.766,37.583],[127.753,37.592],[127.739,37.587],[127.723,37.591],[127.708,37.586],[127.698,37.592],[127.697,37.6],[127.562,37.6],[127.473,37.6],[127.343,37.6],[127.3,37.6],[127.3,37.51]]]},"properties":{"sidonm":"경기도"}},
{"type":"Feature","geometry":{"type":"Polygon","coordinates":[[[127.757,37.265],[127.758,37.258],[127.749,37.247],[127.746,37.23],[127.748,37.217],[127.744,37.21],[127.754,37.176],[127.763,37.163],[127.79,37.144],[127.815,37.147],[127.825,37.152],[127.849,37.153],[127.852,37.159],[127.873,37.164],[127.887,37.161],[127.899,37.15],[127.909,37.167],[127.926,37.165],[127.934,37.176],[127.937,37.189],[127.932,37.207],[127.921,37.226],[127.939,37.241],[127.948,37.247],[127.963,37.25],[127.973,37.257],[127.985,37.258],[128.008,37.252],[128.019,37.244],[128.02,37.235],[128.039,37.215],[128.03,37.204],[128.031,37.194],[128.04,37.189],[128.06,37.194],[128.079,37.194],[128.112,37.208],[128.125,37.223],[128.126,37.235],[128.153,37.216],[128.167,37.215],[128.173,37.219],[128.174,37.233],[128.201,37.249],[128.22,37.241],[128.232,37.227],[128.25,37.229],[128.259,37.216],[128.269,37.208],[128.301,37.217],[128.317,37.223],[128.331,37.217],[128.327,37.199],[128.313,37.197],[128.314,37.19],[128.296,37.183],[128.298,37.172],[128.276,37.172],[128.265,37.161],[128.272,37.151],[128.298,37.134],[128.311,37.145],[128.331,37.15],[128.337,37.158],[128.35,37.158],[128.36,37.15],[128.377,37.152],[128.384,37.158],[128.401,37.146],[128.404,37.14],[128.396,37.129],[128.418,37.12],[128.423,37.103],[128.438,37.111],[128.451,37.112],[128.466,37.11],[128.481,37.112],[128.49,37.123],[128.513,37.113],[128.515,37.103],[128.534,37.099],[128.538,37.09],[128.555,37.087],[128.562,37.09],[128.592,37.078],[128.606,37.077],[128.623,37.087],[128.628,37.075],[128.652,37.065],[128.657,37.061],[128.675,37.059],[128.689,37.053],[128.701,37.041],[128.719,37.044],[128.735,37.04],[128.752,37.028],[128.762,37.035],[128.752,37.058],[128.765,37.064],[128.778,37.083],[128.773,37.087],[128.803,37.085],[128.809,37.078],[128.827,37.078],[128.847,37.052],[128.866,37.048],[128.878,37.053],[128.897,37.046],[128.897,37.058],[128.91,37.067],[128.921,37.091],[128.945,37.095],[128.96,37.077],[128.97,37.082],[128.994,37.084],[128.995,37.081],[129.034,37.076],[129.062,37.066],[129.073,37.091],[129.096,37.1],[129.109,37.094],[129.119,37.093],[129.127,37.085],[129.141,37.082],[129.155,37.07],[129.165,37.07],[129.171,37.06],[129.195,37.041],[129.205,37.045],[129.225,37.045],[129.233,37.064],[129.231,37.077],[129.25,37.096],[129.266,37.102],[129.272,37.117],[129.294,37.114],[129.298,37.125],[129.321,37.136],[129.325,37.142],[129.348,37.147],[129.364,37.146],[129.358,37.159],[129.347,37.168],[129.34,37.194],[129.348,37.21],[129.341,37.226],[129.357,37.235],[129.349,37.248],[129.327,37.266],[129.329,37.28],[129.322,37.283],[129.301,37.293],[129.299,37.31],[129.288,37.31],[129.27,37.323],[129.268,37.339],[129.251,37.363],[129.252,37.38],[129.228,37.393],[129.203,37.411],[129.197,37.418],[129.193,37.432],[129.19,37.449],[129.178,37.464],[129.16,37.477],[129.142,37.492],[129.125,37.517],[129.125,37.526],[129.115,37.536],[129.113,37.542],[129.113,37.55],[129.122,37.558],[129.112,37.582],[129.082,37.6],[129.062,37.6],[128.886,37.6],[128.717,37.6],[128.674,37.6],[128.491,37.6],[128.4,37.6],[128.283,37.6],[128.249,37.6],[128.12,37.6],[128.032,37.6],[127.915,37.6],[127.913,37.6],[127.909,37.6],[127.856,37.6],[127.697,37.6],[127.698,37.592],[127.708,37.586],[127.723,37.591],[127.739,37.587],[127.753,37.592],[127.766,37.583],[127.783,37.579],[127.793,37.585],[127.81,37.573],[127.813,37.565],[127.84,37.56],[127.849,37.553],[127.842,37.539],[127.806,37.535],[127.805,37.53],[127.774,37.506],[127.759,37.504],[127.76,37.492],[127.781,37.488],[127.788,37.476],[127.801,37.47],[127.796,37.464],[127.802,37.435],[127.795,37.424],[127.783,37.39],[127.777,37.383],[127.778,37.371],[127.759,37.367],[127.761,37.364],[127.758,37.346],[127.762,37.321],[127.768,37.303],[127.755,37.298],[127.757,37.265]]]},"properties":{"sidonm":"강원특별자치도"}},
{"type":"Feature","geometry":{"type":"Polygon","coordinates":[[[128.134,36.832],[128.14,36.834],[128.156,36.823],[128.176,36.821],[128.209,36.814],[128.219,36.815],[128.213,36.839],[128.215,36.849],[128.237,36.848],[128.234,36.856],[128.242,36.873],[128.269,36.86],[128.282,36.857],[128.287,36.845],[128.297,36.834],[128.309,36.829],[128.317,36.817],[128.334,36.817],[128.354,36.809],[128.367,36.801],[128.382,36.814],[128.421,36.811],[128.432,36.824],[128.434,36.834],[128.449,36.849],[128.449,36.863],[128.439,36.873],[128.424,36.876],[128.427,36.889],[128.44,36.901],[128.445,36.918],[128.442,36.928],[128.46,36.934],[128.463,36.947],[128.477,36.958],[128.505,36.969],[128.514,36.977],[128.514,36.987],[128.538,36.991],[128.555,36.998],[128.556,37.006],[128.57,37.014],[128.573,37.022],[128.565,37.031],[128.577,37.035],[128.584,37.044],[128.607,37.043],[128.619,37.05],[128.631,37.039],[128.645,37.062],[128.652,37.065],[128.628,37.075],[128.623,37.087],[128.606,37.077],[128.592,37.078],[128.562,37.09],[128.555,37.087],[128.538,37.09],[128.534,37.099],[128.515,37.103],[128.513,37.113],[128.49,37.123],[128.481,37.112],[128.466,37.11],[128.451,37.112],[128.438,37.111],[128.423,37.103],[128.418,37.12],[128.396,37.129],[128.404,37.14],[128.401,37.146],[128.384,37.158],[128.377,37.152],[128.36,37.15],[128.35,37.158],[128.337,37.158],[128.331,37.15],[128.311,37.145],[128.298,37.134],[128.272,37.151],[128.265,37.161],[128.276,37.172],[128.298,37.172],[128.296,37.183],[128.314,37.19],[128.313,37.197],[128.327,37.199],[128.331,37.217],[128.317,37.223],[128.301,37.217],[128.269,37.208],[128.259,37.216],[128.25,37.229],[128.232,37.227],[128.22,37.241],[128.201,37.249],[128.174,37.233],[128.173,37.219],[128.167,37.215],[128.153,37.216],[128.126,37.235],[128.125,37.223],[128.112,37.208],[128.079,37.194],[128.06,37.194],[128.04,37.189],[128.031,37.194],[128.03,37.204],[128.039,37.215],[128.02,37.235],[128.019,37.244],[128.008,37.252],[127.985,37.258],[127.973,37.257],[127.963,37.25],[127.948,37.247],[127.939,37.241],[127.921,37.226],[127.932,37.207],[127.937,37.189],[127.934,37.176],[127.926,37.165],[127.909,37.167],[127.899,37.15],[127.887,37.161],[127.873,37.164],[127.852,37.159],[127.849,37.153],[127.825,37.152],[127.815,37.147],[127.79,37.144],[127.763,37.163],[127.754,37.176],[127.744,37.21],[127.748,37.217],[127.737,37.21],[127.727,37.183],[127.718,37.184],[127.705,37.167],[127.704,37.156],[127.696,37.152],[127.695,37.14],[127.688,37.135],[127.668,37.137],[127.648,37.151],[127.629,37.154],[127.638,37.141],[127.634,37.124],[127.633,37.098],[127.61,37.086],[127.601,37.085],[127.604,37.069],[127.595,37.074],[127.576,37.074],[127.566,37.063],[127.568,37.048],[127.562,37.045],[127.55,37.045],[127.536,37.054],[127.513,37.056],[127.509,37.049],[127.49,37.053],[127.468,37.053],[127.457,37.041],[127.459,37.025],[127.447,37.011],[127.43,37.002],[127.396,36.998],[127.385,36.985],[127.402,36.968],[127.397,36.964],[127.38,36.959],[127.375,36.948],[127.35,36.953],[127.343,36.944],[127.327,36.936],[127.3,36.929],[127.3,36.922],[127.3,36.907],[127.3,36.889],[127.31,36.881],[127.307,36.86],[127.328,36.858],[127.337,36.854],[127.333,36.831],[127.356,36.828],[127.358,36.822],[127.382,36.814],[127.401,36.799],[127.395,36.784],[127.404,36.774],[127.413,36.772],[127.42,36.758],[127.412,36.757],[127.405,36.745],[127.389,36.753],[127.387,36.759],[127.359,36.761],[127.336,36.752],[127.34,36.732],[127.328,36.735],[127.317,36.725],[127.308,36.721],[127.308,36.705],[127.3,36.7],[127.3,36.686],[127.308,36.682],[127.305,36.668],[127.3,36.658],[127.3,36.616],[127.307,36.6],[127.3,36.587],[127.3,36.585],[127.302,36.582],[127.322,36.583],[127.343,36.565],[127.351,36.562],[127.377,36.567],[127.376,36.561],[127.383,36.542],[127.402,36.541],[127.408,36.527],[127.404,36.517],[127.409,36.507],[127.409,36.495],[127.396,36.492],[127.404,36.483],[127.401,36.47],[127.403,36.456],[127.415,36.455],[127.427,36.455],[127.436,36.457],[127.453,36.45],[127.464,36.457],[127.466,36.469],[127.483,36.478],[127.479,36.458],[127.499,36.456],[127.503,36.449],[127.489,36.433],[127.503,36.408],[127.509,36.405],[127.516,36.422],[127.54,36.421],[127.552,36.405],[127.554,36.395],[127.539,36.397],[127.526,36.387],[127.527,36.369],[127.521,36.353],[127.51,36.35],[127.501,36.339],[127.504,36.326],[127.495,36.312],[127.499,36.306],[127.489,36.301],[127.497,36.287],[127.489,36.273],[127.486,36.261],[127.493,36.238],[127.518,36.241],[127.532,36.25],[127.55,36.238],[127.547,36.23],[127.57,36.233],[127.585,36.23],[127.598,36.217],[127.599,36.205],[127.593,36.195],[127.598,36.184],[127.593,36.177],[127.602,36.162],[127.594,36.153],[127.59,36.134],[127.604,36.117],[127.62,36.109],[127.618,36.096],[127.632,36.082],[127.638,36.068],[127.655,36.055],[127.66,36.038],[127.673,36.041],[127.671,36.052],[127.689,36.063],[127.695,36.059],[127.696,36.041],[127.705,36.034],[127.72,36.03],[127.731,36.032],[127.739,36.025],[127.762,36.025],[127.765,36.012],[127.788,36.014],[127.798,36.025],[127.819,36.028],[127.826,36.033],[127.849,36.04],[127.865,36.025],[127.877,36.022],[127.888,36.035],[127.904,36.039],[127.917,36.054],[127.936,36.051],[127.961,36.068],[127.962,36.083],[127.958,36.095],[127.969,36.107],[127.966,36.118],[127.988,36.13],[127.987,36.147],[127.996,36.153],[127.983,36.17],[127.985,36.177],[127.976,36.189],[127.986,36.2],[128.014,36.209],[128.026,36.206],[128.038,36.194],[128.053,36.201],[128.05,36.215],[128.042,36.217],[128.039,36.229],[128.03,36.24],[128.048,36.257],[128.026,36.268],[128.012,36.271],[128.001,36.266],[127.982,36.264],[127.979,36.254],[127.969,36.25],[127.948,36.257],[127.947,36.267],[127.938,36.269],[127.931,36.278],[127.913,36.281],[127.907,36.286],[127.905,36.302],[127.892,36.292],[127.884,36.274],[127.863,36.278],[127.852,36.274],[127.847,36.301],[127.841,36.31],[127.845,36.316],[127.852,36.33],[127.881,36.345],[127.891,36.36],[127.88,36.372],[127.884,36.38],[127.864,36.403],[127.873,36.41],[127.883,36.424],[127.875,36.428],[127.873,36.442],[127.882,36.461],[127.878,36.467],[127.88,36.493],[127.888,36.493],[127.907,36.508],[127.902,36.513],[127.902,36.528],[127.874,36.537],[127.873,36.555],[127.862,36.567],[127.83,36.574],[127.824,36.571],[127.805,36.582],[127.797,36.592],[127.798,36.602],[127.824,36.613],[127.842,36.609],[127.85,36.613],[127.848,36.633],[127.862,36.634],[127.871,36.644],[127.874,36.655],[127.889,36.64],[127.889,36.629],[127.91,36.626],[127.92,36.604],[127.925,36.615],[127.932,36.618],[127.938,36.651],[127.932,36.654],[127.932,36.665],[127.918,36.668],[127.913,36.678],[127.892,36.682],[127.887,36.691],[127.913,36.693],[127.928,36.69],[127.932,36.706],[127.949,36.706],[127.952,36.72],[127.961,36.737],[127.987,36.717],[128.003,36.717],[128.008,36.728],[128.022,36.726],[128.049,36.708],[128.071,36.707],[128.069,36.722],[128.056,36.729],[128.032,36.748],[128.032,36.755],[128.044,36.771],[128.045,36.785],[128.055,36.793],[128.06,36.817],[128.082,36.807],[128.084,36.799],[128.107,36.806],[128.112,36.819],[128.129,36.824],[128.134,36.832]]]},"properties":{"sidonm":"충청북도"}},
{"type":"Feature","geometry":{"type":"MultiPolygon","coordinates":[[[[127.3,36.889],[127.3,36.847],[127.3,36.757],[127.3,36.7],[127.308,36.705],[127.308,36.721],[127.317,36.725],[127.328,36.735],[127.34,36.732],[127.336,36.752],[127.359,36.761],[127.387,36.759],[127.389,36.753],[127.405,36.745],[127.412,36.757],[127.42,36.758],[127.413,36.772],[127.404,36.774],[127.395,36.784],[127.401,36.799],[127.382,36.814],[127.358,36.822],[127.356,36.828],[127.333,36.831],[127.337,36.854],[127.328,36.858],[127.307,36.86],[127.31,36.881],[127.3,36.889]]],[[[127.3,36.221],[127.3,36.129],[127.3,36.123],[127.302,36.125],[127.314,36.119],[127.323,36.13],[127.338,36.13],[127.344,36.118],[127.355,36.108],[127.348,36.098],[127.36,36.09],[127.357,36.083],[127.361,36.053],[127.373,36.044],[127.378,36.023],[127.392,36.017],[127.401,36.008],[127.426,36.026],[127.437,36.021],[127.448,35.993],[127.456,35.984],[127.468,35.988],[127.476,35.981],[127.488,35.978],[127.499,35.987],[127.506,35.98],[127.525,35.986],[127.534,35.992],[127.54,36.012],[127.536,36.021],[127.538,36.033],[127.532,36.041],[127.547,36.038],[127.552,36.033],[127.568,36.03],[127.576,36.023],[127.592,36.024],[127.605,36.012],[127.628,36.031],[127.631,36.041],[127.619,36.043],[127.62,36.061],[127.638,36.068],[127.632,36.082],[127.618,36.096],[127.62,36.109],[127.604,36.117],[127.59,36.134],[127.594,36.153],[127.602,36.162],[127.593,36.177],[127.598,36.184],[127.593,36.195],[127.599,36.205],[127.598,36.217],[127.585,36.23],[127.57,36.233],[127.547,36.23],[127.55,36.238],[127.532,36.25],[127.518,36.241],[127.493,36.238],[127.467,36.222],[127.469,36.215],[127.453,36.207],[127.455,36.201],[127.443,36.194],[127.422,36.208],[127.408,36.213],[127.401,36.232],[127.388,36.234],[127.391,36.243],[127.387,36.253],[127.389,36.266],[127.372,36.272],[127.361,36.264],[127.365,36.243],[127.359,36.214],[127.348,36.205],[127.341,36.189],[127.331,36.184],[127.33,36.194],[127.322,36.214],[127.314,36.222],[127.3,36.221]]]]},"properties":{"sidonm":"충청남도"}},
{"type":"Feature","geometry":{"type":"Polygon","coordinates":[[[127.3,35.309],[127.3,35.3],[127.326,35.3],[127.387,35.3],[127.493,35.3],[127.507,35.3],[127.55,35.3],[127.576,35.3],[127.577,35.309],[127.573,35.312],[127.568,35.318],[127.555,35.322],[127.531,35.337],[127.514,35.351],[127.496,35.361],[127.486,35.358],[127.471,35.366],[127.454,35.361],[127.431,35.36],[127.423,35.351],[127.415,35.337],[127.402,35.325],[127.399,35.313],[127.384,35.303],[127.377,35.311],[127.356,35.321],[127.334,35.315],[127.324,35.309],[127.324,35.306],[127.321,35.306],[127.309,35.303],[127.3,35.309]]]},"properties":{"sidonm":"전남광주통합특별시"}},
{"type":"Feature","geometry":{"type":"Polygon","coordinates":[[[128.177,35.3],[128.227,35.3],[128.289,35.3],[128.359,35.3],[128.369,35.3],[128.416,35.3],[128.462,35.3],[128.572,35.3],[128.639,35.3],[128.698,35.3],[128.781,35.3],[128.859,35.3],[128.882,35.3],[128.966,35.3],[128.981,35.3],[129.016,35.3],[129.085,35.3],[129.097,35.304],[129.109,35.305],[129.114,35.32],[129.126,35.333],[129.128,35.344],[129.135,35.353],[129.13,35.359],[129.139,35.366],[129.153,35.363],[129.175,35.351],[129.194,35.361],[129.199,35.376],[129.195,35.384],[129.203,35.388],[129.22,35.409],[129.202,35.43],[129.196,35.439],[129.179,35.433],[129.165,35.432],[129.146,35.444],[129.136,35.456],[129.129,35.459],[129.11,35.48],[129.107,35.495],[129.095,35.498],[129.062,35.509],[129.052,35.516],[129.057,35.531],[129.011,35.523],[128.994,35.529],[128.998,35.542],[128.981,35.547],[128.971,35.561],[128.995,35.569],[129.02,35.585],[129.026,35.601],[129.022,35.614],[129.003,35.62],[128.986,35.608],[128.96,35.619],[128.941,35.633],[128.923,35.638],[128.915,35.645],[128.907,35.635],[128.886,35.63],[128.875,35.635],[128.872,35.621],[128.853,35.596],[128.843,35.589],[128.833,35.597],[128.802,35.588],[128.796,35.574],[128.787,35.566],[128.768,35.571],[128.754,35.57],[128.725,35.581],[128.715,35.578],[128.697,35.582],[128.691,35.594],[128.658,35.598],[128.631,35.587],[128.607,35.58],[128.593,35.584],[128.574,35.592],[128.56,35.603],[128.558,35.615],[128.537,35.624],[128.535,35.644],[128.538,35.655],[128.531,35.662],[128.526,35.682],[128.509,35.675],[128.506,35.64],[128.483,35.636],[128.461,35.641],[128.45,35.638],[128.432,35.624],[128.418,35.622],[128.411,35.615],[128.396,35.614],[128.382,35.607],[128.371,35.611],[128.362,35.612],[128.363,35.629],[128.355,35.642],[128.341,35.644],[128.297,35.656],[128.296,35.651],[128.278,35.652],[128.277,35.647],[128.261,35.643],[128.244,35.656],[128.23,35.639],[128.201,35.644],[128.184,35.658],[128.164,35.653],[128.158,35.658],[128.16,35.667],[128.167,35.674],[128.179,35.673],[128.194,35.684],[128.202,35.684],[128.204,35.697],[128.201,35.706],[128.202,35.723],[128.189,35.752],[128.165,35.763],[128.161,35.77],[128.164,35.776],[128.155,35.786],[128.14,35.784],[128.129,35.789],[128.122,35.804],[128.125,35.823],[128.109,35.824],[128.091,35.831],[128.079,35.839],[128.07,35.841],[128.051,35.829],[128.032,35.836],[128.012,35.829],[127.997,35.838],[127.985,35.857],[127.971,35.851],[127.951,35.861],[127.942,35.854],[127.933,35.864],[127.928,35.881],[127.913,35.89],[127.893,35.887],[127.883,35.899],[127.888,35.915],[127.867,35.904],[127.851,35.89],[127.853,35.881],[127.841,35.867],[127.831,35.87],[127.821,35.865],[127.813,35.853],[127.804,35.857],[127.779,35.847],[127.772,35.839],[127.758,35.837],[127.745,35.844],[127.739,35.827],[127.72,35.797],[127.7,35.788],[127.685,35.778],[127.679,35.769],[127.669,35.771],[127.664,35.767],[127.66,35.738],[127.663,35.725],[127.661,35.71],[127.642,35.693],[127.639,35.67],[127.629,35.664],[127.63,35.657],[127.62,35.643],[127.624,35.632],[127.635,35.618],[127.621,35.615],[127.612,35.607],[127.608,35.595],[127.611,35.585],[127.595,35.573],[127.585,35.555],[127.626,35.532],[127.637,35.509],[127.651,35.498],[127.653,35.486],[127.637,35.479],[127.636,35.462],[127.645,35.45],[127.669,35.447],[127.665,35.427],[127.659,35.414],[127.646,35.403],[127.635,35.4],[127.625,35.385],[127.622,35.373],[127.61,35.366],[127.612,35.356],[127.623,35.344],[127.62,35.332],[127.606,35.319],[127.586,35.309],[127.577,35.309],[127.576,35.3],[127.689,35.3],[127.788,35.3],[127.851,35.3],[127.868,35.3],[127.966,35.3],[128.013,35.3],[128.051,35.3],[128.085,35.3],[128.157,35.3],[128.177,35.3]]]},"properties":{"sidonm":"경상남도"}},
{"type":"Feature","geometry":{"type":"Polygon","coordinates":[[[127.514,35.351],[127.531,35.337],[127.555,35.322],[127.568,35.318],[127.573,35.312],[127.577,35.309],[127.586,35.309],[127.606,35.319],[127.62,35.332],[127.623,35.344],[127.612,35.356],[127.61,35.366],[127.622,35.373],[127.625,35.385],[127.635,35.4],[127.646,35.403],[127.659,35.414],[127.665,35.427],[127.669,35.447],[127.645,35.45],[127.636,35.462],[127.637,35.479],[127.653,35.486],[127.651,35.498],[127.637,35.509],[127.626,35.532],[127.585,35.555],[127.595,35.573],[127.611,35.585],[127.608,35.595],[127.612,35.607],[127.621,35.615],[127.635,35.618],[127.624,35.632],[127.62,35.643],[127.63,35.657],[127.629,35.664],[127.639,35.67],[127.642,35.693],[127.661,35.71],[127.663,35.725],[127.66,35.738],[127.664,35.767],[127.669,35.771],[127.679,35.769],[127.685,35.778],[127.7,35.788],[127.72,35.797],[127.739,35.827],[127.745,35.844],[127.758,35.837],[127.772,35.839],[127.779,35.847],[127.804,35.857],[127.813,35.853],[127.821,35.865],[127.831,35.87],[127.841,35.867],[127.853,35.881],[127.851,35.89],[127.867,35.904],[127.888,35.915],[127.882,35.928],[127.906,35.941],[127.911,35.949],[127.904,35.955],[127.894,35.984],[127.876,35.997],[127.879,36.001],[127.877,36.022],[127.865,36.025],[127.849,36.04],[127.826,36.033],[127.819,36.028],[127.798,36.025],[127.788,36.014],[127.765,36.012],[127.762,36.025],[127.739,36.025],[127.731,36.032],[127.72,36.03],[127.705,36.034],[127.696,36.041],[127.695,36.059],[127.689,36.063],[127.671,36.052],[127.673,36.041],[127.66,36.038],[127.655,36.055],[127.638,36.068],[127.62,36.061],[127.619,36.043],[127.631,36.041],[127.628,36.031],[127.605,36.012],[127.592,36.024],[127.576,36.023],[127.568,36.03],[127.552,36.033],[127.547,36.038],[127.532,36.041],[127.538,36.033],[127.536,36.021],[127.54,36.012],[127.534,35.992],[127.525,35.986],[127.506,35.98],[127.499,35.987],[127.488,35.978],[127.476,35.981],[127.468,35.988],[127.456,35.984],[127.448,35.993],[127.437,36.021],[127.426,36.026],[127.401,36.008],[127.392,36.017],[127.378,36.023],[127.373,36.044],[127.361,36.053],[127.357,36.083],[127.36,36.09],[127.348,36.098],[127.355,36.108],[127.344,36.118],[127.338,36.13],[127.323,36.13],[127.314,36.119],[127.302,36.125],[127.3,36.123],[127.3,36.055],[127.3,36.017],[127.3,35.997],[127.3,35.868],[127.3,35.818],[127.3,35.804],[127.3,35.799],[127.3,35.787],[127.3,35.78],[127.3,35.774],[127.3,35.684],[127.3,35.648],[127.3,35.634],[127.3,35.629],[127.3,35.584],[127.3,35.542],[127.3,35.493],[127.3,35.49],[127.3,35.478],[127.3,35.447],[127.3,35.393],[127.3,35.373],[127.3,35.309],[127.309,35.303],[127.321,35.306],[127.324,35.306],[127.324,35.309],[127.334,35.315],[127.356,35.321],[127.377,35.311],[127.384,35.303],[127.399,35.313],[127.402,35.325],[127.415,35.337],[127.423,35.351],[127.431,35.36],[127.454,35.361],[127.471,35.366],[127.486,35.358],[127.496,35.361],[127.514,35.351]]]},"properties":{"sidonm":"전북특별자치도"}}
]}