{"type":"FeatureCollection", "features": [
{"type":"Feature","geometry":{"type":"Polygon","coordinates":[[[129.5782,36.0323],[129.579,36.0402],[129.5836,36.0456],[129.5772,36.0494],[129.5766,36.0577],[129.573,36.0661],[129.5686,36.0686],[129.5704,36.0733],[129.5696,36.0792],[129.562,36.0783],[129.5554,36.0861],[129.5457,36.0838],[129.5458,36.0781],[129.541,36.0733],[129.5405,36.0677],[129.5337,36.0619],[129.533,36.0575],[129.5263,36.0583],[129.5235,36.0545],[129.5156,36.0444],[129.5041,36.0367],[129.5033,36.0262],[129.4978,36.0236],[129.4932,36.0189],[129.4816,36.0167],[129.4739,36.0131],[129.4555,36.0001],[129.4564,35.9934],[129.4463,35.9918],[129.432,35.9961],[129.4214,36.0012],[129.4163,36.0057],[129.4169,36.0123],[129.3985,36.0142],[129.3917,36.0121],[129.3966,36.0204],[129.4007,36.0211],[129.4082,36.0296],[129.3941,36.0261],[129.3886,36.0317],[129.3841,36.0298],[129.3774,36.0414],[129.3778,36.0461],[129.3737,36.0496],[129.3782,36.0515],[129.3785,36.0556],[129.3809,36.0604],[129.387,36.0642],[129.3958,36.0633],[129.4015,36.0694],[129.4111,36.0731],[129.418,36.0735],[129.4202,36.0769],[129.4172,36.0817],[129.4186,36.0885],[129.4221,36.09],[129.4305,36.0996],[129.437,36.0961],[129.4407,36.1003],[129.4409,36.1109],[129.4326,36.111],[129.4258,36.1137],[129.4052,36.1287],[129.3977,36.1349],[129.3953,36.1422],[129.4006,36.1538],[129.3982,36.157],[129.3998,36.1646],[129.3977,36.1686],[129.3953,36.1726],[129.3923,36.184],[129.3867,36.1839],[129.3772,36.1897],[129.3731,36.1955],[129.3726,36.2071],[129.3786,36.2086],[129.3843,36.2123],[129.3862,36.2181],[129.3867,36.2234],[129.3817,36.2283],[129.386,36.2387],[129.3775,36.2471],[129.3732,36.2546],[129.3757,36.2605],[129.3763,36.2683],[129.3661,36.2686],[129.3629,36.271],[129.3535,36.2731],[129.3477,36.2698],[129.3443,36.2703],[129.3394,36.2667],[129.3284,36.2675],[129.3142,36.2709],[129.3044,36.2677],[129.3001,36.2736],[129.2934,36.2764],[129.2922,36.2791],[129.2866,36.2861],[129.2879,36.2889],[129.2865,36.2984],[129.3002,36.3073],[129.3017,36.3181],[129.2917,36.3247],[129.2873,36.3325],[129.2758,36.3278],[129.2675,36.33],[129.2667,36.3208],[129.2519,36.3209],[129.2493,36.319],[129.2388,36.3173],[129.2364,36.3142],[129.2253,36.3086],[129.2197,36.3035],[129.2239,36.2991],[129.2241,36.2909],[129.221,36.2878],[129.2257,36.2824],[129.2214,36.2776],[129.2207,36.2732],[129.214,36.2717],[129.2057,36.2646],[129.2041,36.2562],[129.199,36.2501],[129.198,36.2445],[129.1947,36.2434],[129.1904,36.2365],[129.1789,36.2272],[129.171,36.2246],[129.1634,36.2318],[129.1471,36.2393],[129.1449,36.2439],[129.1389,36.2495],[129.1379,36.2551],[129.1324,36.2621],[129.1265,36.2642],[129.1239,36.2622],[129.1172,36.2661],[129.1126,36.2645],[129.1059,36.2669],[129.1028,36.2648],[129.099,36.271],[129.0935,36.2739],[129.0903,36.2726],[129.0807,36.2774],[129.0657,36.2738],[129.0599,36.268],[129.0597,36.2647],[129.053,36.2637],[129.0531,36.2596],[129.0567,36.255],[129.062,36.252],[129.0654,36.2537],[129.0725,36.2522],[129.0809,36.234],[129.0669,36.2268],[129.0661,36.2215],[129.0626,36.2202],[129.0566,36.224],[129.0513,36.2221],[129.0438,36.2221],[129.0393,36.219],[129.0355,36.2081],[129.0359,36.2052],[129.0276,36.1929],[129.0284,36.1875],[129.0253,36.1825],[129.0097,36.1789],[129.0007,36.1797],[128.9923,36.1759],[128.9915,36.1707],[128.9875,36.168],[128.9979,36.1642],[129.0068,36.1626],[129.0122,36.163],[129.0256,36.159],[129.0316,36.1606],[129.0449,36.1567],[129.0454,36.1512],[129.0506,36.1506],[129.0617,36.1435],[129.0641,36.1364],[129.0593,36.1354],[129.0566,36.1317],[129.0665,36.1241],[129.0713,36.1147],[129.0787,36.1116],[129.0819,36.1172],[129.0977,36.1219],[129.1044,36.1166],[129.105,36.1142],[129.099,36.1071],[129.0932,36.1047],[129.0926,36.0998],[129.1009,36.0891],[129.1108,36.0837],[129.112,36.0798],[129.1199,36.0789],[129.1288,36.0809],[129.1334,36.0749],[129.1334,36.0688],[129.1413,36.058],[129.1493,36.0574],[129.1516,36.0548],[129.1644,36.0555],[129.1773,36.048],[129.1792,36.04],[129.1791,36.0276],[129.1849,36.0294],[129.1977,36.0404],[129.2042,36.0431],[129.2236,36.0438],[129.2275,36.048],[129.2377,36.0528],[129.2415,36.0628],[129.2428,36.07],[129.2476,36.0735],[129.2509,36.0725],[129.263,36.0752],[129.2754,36.0795],[129.2849,36.0719],[129.2866,36.0624],[129.2809,36.0577],[129.284,36.0466],[129.2788,36.0319],[129.2767,36.0286],[129.2787,36.0246],[129.284,36.0223],[129.293,36.0135],[129.2973,36.0074],[129.2958,36.0035],[129.2961,35.9948],[129.3033,35.9958],[129.3046,35.9902],[129.3029,35.987],[129.3054,35.9831],[129.3057,35.9753],[129.3079,35.9697],[129.3123,35.9684],[129.3153,35.9594],[129.32,35.9581],[129.3167,35.9464],[129.3188,35.9438],[129.3295,35.9368],[129.333,35.9307],[129.3296,35.9266],[129.3364,35.9174],[129.3341,35.9111],[129.3345,35.9056],[129.3332,35.9022],[129.3383,35.8947],[129.3426,35.8892],[129.3572,35.8859],[129.3611,35.8882],[129.3636,35.8785],[129.3551,35.8728],[129.3606,35.8653],[129.3717,35.8613],[129.375,35.8634],[129.3907,35.8639],[129.3937,35.8582],[129.4061,35.858],[129.4101,35.8616],[129.4102,35.8704],[129.4146,35.8762],[129.4214,35.878],[129.4214,35.884],[129.4372,35.8785],[129.4408,35.8689],[129.4445,35.8668],[129.4461,35.859],[129.4496,35.8545],[129.449,35.8513],[129.4549,35.8468],[129.4606,35.8488],[129.4747,35.8497],[129.4801,35.8529],[129.4896,35.8435],[129.5011,35.8399],[129.5128,35.84],[129.5183,35.8419],[129.5204,35.8487],[129.525,35.8526],[129.5277,35.8636],[129.5345,35.8682],[129.534,35.8721],[129.52,35.8727],[129.5205,35.8814],[129.527,35.881],[129.5314,35.8868],[129.5257,35.8883],[129.5276,35.8975],[129.5348,35.9002],[129.526,35.9079],[129.5244,35.9156],[129.5198,35.9186],[129.5189,35.9272],[129.5242,35.9337],[129.5302,35.935],[129.5326,35.936],[129.5398,35.9492],[129.5452,35.9527],[129.5505,35.9601],[129.5474,35.9643],[129.5545,35.9679],[129.5522,35.9741],[129.5522,35.9856],[129.5564,35.9907],[129.5622,35.9888],[129.5674,35.9897],[129.5666,35.9956],[129.5735,36.004],[129.5778,36.0118],[129.5849,36.0165],[129.5775,36.0265],[129.5823,36.0288],[129.5782,36.0323]]]},"properties":{"sigun":"포항시"}},
{"type":"Feature","geometry":{"type":"Polygon","coordinates":[[[129.4549,35.8468],[129.449,35.8513],[129.4496,35.8545],[129.4461,35.859],[129.4445,35.8668],[129.4408,35.8689],[129.4372,35.8785],[129.4214,35.884],[129.4214,35.878],[129.4146,35.8762],[129.4102,35.8704],[129.4101,35.8616],[129.4061,35.858],[129.3937,35.8582],[129.3907,35.8639],[129.375,35.8634],[129.3717,35.8613],[129.3606,35.8653],[129.3551,35.8728],[129.3636,35.8785],[129.3611,35.8882],[129.3572,35.8859],[129.3426,35.8892],[129.3383,35.8947],[129.3332,35.9022],[129.3345,35.9056],[129.3341,35.9111],[129.3364,35.9174],[129.3296,35.9266],[129.333,35.9307],[129.3295,35.9368],[129.3188,35.9438],[129.3167,35.9464],[129.32,35.9581],[129.3153,35.9594],[129.3123,35.9684],[129.3079,35.9697],[129.3057,35.9753],[129.3054,35.9831],[129.3029,35.987],[129.3046,35.9902],[129.3033,35.9958],[129.2961,35.9948],[129.2958,36.0035],[129.2973,36.0074],[129.293,36.0135],[129.284,36.0223],[129.2787,36.0246],[129.2767,36.0286],[129.2788,36.0319],[129.284,36.0466],[129.2809,36.0577],[129.2866,36.0624],[129.2849,36.0719],[129.2754,36.0795],[129.263,36.0752],[129.2509,36.0725],[129.2476,36.0735],[129.2428,36.07],[129.2415,36.0628],[129.2377,36.0528],[129.2275,36.048],[129.2236,36.0438],[129.2042,36.0431],[129.1977,36.0404],[129.1849,36.0294],[129.1791,36.0276],[129.1792,36.04],[129.1773,36.048],[129.1644,36.0555],[129.1516,36.0548],[129.1513,36.0496],[129.1463,36.0455],[129.1397,36.0432],[129.1342,36.0342],[129.1404,36.0247],[129.1443,36.0115],[129.1325,36.0058],[129.1227,36.0068],[129.1168,36.0126],[129.1144,36.0121],[129.1105,36.0048],[129.113,36.0014],[129.1106,35.9967],[129.1171,35.9855],[129.1181,35.9741],[129.1178,35.9601],[129.1249,35.9507],[129.1274,35.9499],[129.1284,35.9387],[129.1317,35.9377],[129.1348,35.9317],[129.1309,35.924],[129.1274,35.9218],[129.1212,35.9222],[129.1153,35.917],[129.1139,35.9232],[129.1099,35.9298],[129.1007,35.9377],[129.0946,35.9407],[129.082,35.9375],[129.0785,35.9418],[129.0671,35.9423],[129.0629,35.938],[129.0607,35.9343],[129.0605,35.9261],[129.0574,35.926],[129.0549,35.9201],[129.0485,35.9192],[129.0456,35.9127],[129.0379,35.9121],[129.0285,35.9047],[129.029,35.8982],[129.026,35.8906],[129.0329,35.8707],[129.027,35.8632],[129.0242,35.8628],[129.0187,35.8564],[129.0161,35.8498],[129.0141,35.8462],[129.0164,35.8406],[129.0138,35.8356],[129.0083,35.8319],[129.0043,35.8233],[129.0034,35.8164],[128.9972,35.8064],[128.9905,35.8005],[128.993,35.7954],[128.9876,35.7855],[128.9876,35.7724],[128.9742,35.7701],[128.9746,35.7601],[128.9699,35.7528],[128.9742,35.7478],[128.9727,35.7369],[128.978,35.7342],[128.9898,35.7235],[128.9913,35.7193],[128.997,35.7174],[128.9967,35.7126],[129.005,35.7048],[129.0039,35.6977],[129.0195,35.6882],[129.0325,35.6905],[129.0379,35.6875],[129.0361,35.6777],[129.0344,35.6762],[129.0397,35.6666],[129.0403,35.6582],[129.0473,35.6501],[129.0643,35.6462],[129.0741,35.6401],[129.0812,35.6434],[129.0811,35.6475],[129.0701,35.6577],[129.0676,35.6618],[129.0695,35.6691],[129.0683,35.6731],[129.073,35.678],[129.0695,35.6807],[129.0774,35.693],[129.0837,35.6991],[129.091,35.7026],[129.1017,35.7062],[129.1161,35.7083],[129.1233,35.7075],[129.1292,35.7129],[129.1352,35.7119],[129.14,35.7181],[129.1385,35.7209],[129.1457,35.7247],[129.1544,35.7217],[129.1606,35.7149],[129.1733,35.7144],[129.1769,35.7155],[129.1815,35.7231],[129.1976,35.7158],[129.2072,35.7215],[129.2141,35.7152],[129.2194,35.7135],[129.2267,35.7083],[129.2325,35.7081],[129.2341,35.7036],[129.256,35.7008],[129.2627,35.6914],[129.2623,35.686],[129.2586,35.6835],[129.2609,35.6794],[129.2598,35.673],[129.2542,35.6663],[129.2549,35.6609],[129.2601,35.6545],[129.2695,35.651],[129.2753,35.6529],[129.2821,35.6495],[129.2845,35.6514],[129.2918,35.6452],[129.3028,35.6483],[129.3036,35.657],[129.3108,35.6602],[129.3188,35.6584],[129.324,35.6592],[129.3307,35.6658],[129.3416,35.6708],[129.3488,35.6773],[129.3539,35.6796],[129.3646,35.6788],[129.3735,35.6698],[129.381,35.6711],[129.4008,35.6671],[129.403,35.6632],[129.4126,35.664],[129.4174,35.6605],[129.4284,35.6559],[129.4446,35.6539],[129.45,35.6509],[129.4535,35.6621],[129.4571,35.666],[129.4651,35.6663],[129.4649,35.6725],[129.467,35.6788],[129.4725,35.6803],[129.4757,35.6857],[129.4761,35.6978],[129.4731,35.7034],[129.4745,35.7085],[129.4801,35.713],[129.4793,35.7173],[129.4817,35.7225],[129.4857,35.7289],[129.4847,35.7434],[129.4934,35.7517],[129.4916,35.7585],[129.4948,35.7621],[129.4944,35.7699],[129.4969,35.7735],[129.4929,35.7806],[129.4918,35.7866],[129.4932,35.7909],[129.4983,35.7903],[129.5014,35.793],[129.5,35.8006],[129.5034,35.8011],[129.5062,35.8087],[129.5144,35.8159],[129.5096,35.8235],[129.5165,35.8353],[129.5208,35.8376],[129.5183,35.8419],[129.5128,35.84],[129.5011,35.8399],[129.4896,35.8435],[129.4801,35.8529],[129.4747,35.8497],[129.4606,35.8488],[129.4549,35.8468]]]},"properties":{"sigun":"경주시"}},
{"type":"Feature","geometry":{"type":"Polygon","coordinates":[[[128.2918,36.1707],[128.2824,36.1722],[128.278,36.1713],[128.2706,36.1741],[128.2702,36.1783],[128.2731,36.1824],[128.2706,36.1914],[128.2713,36.1953],[128.2625,36.1976],[128.2567,36.2011],[128.2443,36.1991],[128.2337,36.2019],[128.2386,36.2072],[128.2342,36.2142],[128.2336,36.2185],[128.2362,36.2249],[128.2258,36.2317],[128.2182,36.2306],[128.2144,36.2367],[128.2017,36.2399],[128.1969,36.2447],[128.1881,36.2438],[128.1732,36.2454],[128.1691,36.2485],[128.1676,36.2536],[128.1619,36.2565],[128.1514,36.2565],[128.1415,36.2583],[128.137,36.2572],[128.1311,36.2514],[128.1201,36.2528],[128.1209,36.2461],[128.119,36.2432],[128.1087,36.2371],[128.1022,36.2433],[128.0965,36.2523],[128.0879,36.2532],[128.0871,36.2488],[128.0766,36.2416],[128.0665,36.2429],[128.0603,36.2454],[128.051,36.2442],[128.0447,36.2527],[128.0396,36.251],[128.0354,36.2434],[128.03,36.2403],[128.0332,36.2335],[128.0393,36.2291],[128.0393,36.2217],[128.0424,36.2173],[128.0504,36.2153],[128.0507,36.2059],[128.063,36.1992],[128.0525,36.2009],[128.0452,36.1963],[128.0384,36.194],[128.0335,36.2001],[128.0263,36.2057],[128.0135,36.2091],[127.9975,36.2061],[127.9923,36.1998],[127.986,36.2004],[127.9765,36.1923],[127.9756,36.1881],[127.981,36.1799],[127.9847,36.1771],[127.9835,36.1698],[127.9896,36.1647],[127.9905,36.1592],[127.9965,36.1537],[127.9873,36.1474],[127.9876,36.1296],[127.9771,36.122],[127.9669,36.1183],[127.9686,36.1072],[127.9631,36.0991],[127.9578,36.0949],[127.9587,36.0878],[127.9617,36.0828],[127.9614,36.0684],[127.9521,36.0652],[127.9466,36.0566],[127.9359,36.0507],[127.9317,36.0502],[127.9261,36.0533],[127.9171,36.0544],[127.9095,36.0497],[127.904,36.0427],[127.9036,36.039],[127.888,36.0348],[127.883,36.0272],[127.8769,36.0224],[127.8754,36.0164],[127.876,36.0098],[127.8788,36.0013],[127.8758,35.9967],[127.8867,35.9921],[127.8937,35.9845],[127.8896,35.9795],[127.8962,35.9779],[127.8965,35.972],[127.9004,35.9669],[127.904,35.9545],[127.9115,35.9495],[127.9065,35.9406],[127.8962,35.9343],[127.8854,35.9309],[127.8822,35.9277],[127.8822,35.9202],[127.8876,35.9146],[127.8889,35.9098],[127.8848,35.9055],[127.8831,35.8993],[127.8849,35.893],[127.8908,35.8903],[127.8933,35.8866],[127.9134,35.8905],[127.9189,35.8896],[127.9234,35.8821],[127.9281,35.8811],[127.9295,35.8714],[127.9332,35.8642],[127.9324,35.8558],[127.9423,35.8543],[127.9508,35.8613],[127.96,35.8596],[127.9635,35.855],[127.9737,35.8509],[127.9818,35.8589],[127.9854,35.8574],[127.9974,35.8378],[128.0045,35.8354],[128.0121,35.8289],[128.0198,35.833],[128.0316,35.8357],[128.0426,35.831],[128.0508,35.8293],[128.0528,35.8325],[128.0615,35.8345],[128.0704,35.8407],[128.0787,35.8389],[128.0784,35.8431],[128.0729,35.8501],[128.076,35.8545],[128.0771,35.8612],[128.0873,35.8726],[128.0811,35.8729],[128.0709,35.8806],[128.0677,35.887],[128.0639,35.8991],[128.0568,35.9038],[128.0604,35.9074],[128.0554,35.9108],[128.054,35.9157],[128.0494,35.9186],[128.0467,35.9322],[128.0516,35.9382],[128.0567,35.9417],[128.0664,35.9369],[128.0714,35.9362],[128.0734,35.9285],[128.0791,35.9266],[128.084,35.9219],[128.0881,35.9224],[128.0913,35.9309],[128.091,35.9372],[128.0885,35.9457],[128.0963,35.9548],[128.104,35.9575],[128.109,35.9629],[128.1117,35.9642],[128.1191,35.9596],[128.1232,35.9623],[128.1319,35.959],[128.1508,35.9664],[128.1517,35.9768],[128.1558,35.9789],[128.1577,35.9873],[128.1675,35.9893],[128.1698,35.9969],[128.1656,36.0014],[128.1688,36.0109],[128.1731,36.0141],[128.1692,36.0184],[128.1674,36.0297],[128.1646,36.0326],[128.1695,36.0356],[128.1785,36.0314],[128.1826,36.0329],[128.1942,36.032],[128.196,36.0335],[128.1971,36.0439],[128.2018,36.0455],[128.2088,36.0449],[128.2221,36.0522],[128.224,36.0556],[128.2308,36.0541],[128.2423,36.0482],[128.2511,36.0492],[128.2569,36.0514],[128.2606,36.0485],[128.2693,36.0487],[128.2841,36.0466],[128.2891,36.043],[128.2931,36.0501],[128.2986,36.0516],[128.3008,36.0626],[128.2899,36.0763],[128.2849,36.0811],[128.2932,36.091],[128.2924,36.0944],[128.2806,36.1018],[128.2756,36.1035],[128.2774,36.1137],[128.2941,36.1307],[128.2944,36.1354],[128.2871,36.1382],[128.2804,36.1429],[128.2873,36.1474],[128.2875,36.1529],[128.2907,36.1541],[128.2951,36.1683],[128.2918,36.1707]]]},"properties":{"sigun":"김천시"}},
{"type":"Feature","geometry":{"type":"Polygon","coordinates":[[[128.4992,36.5844],[128.4958,36.5824],[128.4925,36.5698],[128.4815,36.568],[128.4654,36.5604],[128.4592,36.556],[128.4561,36.5492],[128.4604,36.5465],[128.4645,36.5399],[128.4535,36.5377],[128.4461,36.5302],[128.44,36.5281],[128.4292,36.522],[128.4369,36.5162],[128.4325,36.5111],[128.4334,36.5031],[128.4442,36.4972],[128.4531,36.491],[128.4599,36.4884],[128.4646,36.492],[128.4616,36.4957],[128.4644,36.4988],[128.4748,36.4987],[128.4763,36.5139],[128.4831,36.5138],[128.491,36.5178],[128.4989,36.5136],[128.5035,36.5011],[128.5143,36.4976],[128.5318,36.4981],[128.5393,36.4953],[128.5439,36.4904],[128.552,36.4882],[128.5527,36.4757],[128.5594,36.4722],[128.5612,36.4629],[128.5662,36.459],[128.5668,36.4521],[128.5703,36.451],[128.5773,36.44],[128.5887,36.4393],[128.5941,36.4361],[128.5968,36.4115],[128.599,36.4095],[128.6069,36.41],[128.6093,36.4148],[128.6154,36.4195],[128.6236,36.4191],[128.6282,36.4239],[128.6458,36.4285],[128.6536,36.4295],[128.6629,36.4375],[128.6685,36.4389],[128.6736,36.4365],[128.6781,36.4384],[128.6809,36.4447],[128.69,36.4439],[128.6996,36.4474],[128.7066,36.448],[128.7043,36.4545],[128.7074,36.4642],[128.7098,36.477],[128.7179,36.4819],[128.7278,36.4764],[128.7342,36.4784],[128.7471,36.4892],[128.7539,36.4851],[128.7593,36.4846],[128.7674,36.4809],[128.773,36.4756],[128.776,36.4688],[128.7825,36.4648],[128.7926,36.4658],[128.7999,36.4588],[128.8095,36.4591],[128.8125,36.455],[128.823,36.4521],[128.8302,36.4518],[128.8298,36.4437],[128.8345,36.4358],[128.8343,36.4276],[128.8411,36.4224],[128.8453,36.4121],[128.8443,36.4079],[128.8513,36.3993],[128.8504,36.3883],[128.8596,36.3878],[128.8712,36.3782],[128.8776,36.3751],[128.8721,36.3661],[128.8762,36.3647],[128.8808,36.3562],[128.8766,36.3448],[128.8856,36.3434],[128.8897,36.3338],[128.8886,36.3307],[128.8929,36.3258],[128.8928,36.3209],[128.8875,36.3164],[128.8874,36.3119],[128.8914,36.3055],[128.8893,36.2974],[128.8983,36.2959],[128.9128,36.2985],[128.9195,36.3049],[128.9267,36.3066],[128.9308,36.3057],[128.933,36.318],[128.9403,36.3254],[128.9447,36.3259],[128.9507,36.3358],[128.9621,36.3384],[128.9661,36.3465],[128.9628,36.3515],[128.9662,36.3611],[128.9616,36.3667],[128.9647,36.3692],[128.9674,36.3778],[128.9747,36.3867],[128.9758,36.3926],[128.9839,36.4046],[128.9838,36.4136],[128.9817,36.424],[128.9731,36.4315],[128.9732,36.4391],[128.976,36.443],[128.9703,36.4523],[128.9688,36.4631],[128.9734,36.4669],[128.9796,36.4687],[128.9806,36.4759],[128.9749,36.4797],[128.9755,36.4842],[128.9828,36.4862],[128.9883,36.4909],[128.9897,36.4955],[128.9956,36.5002],[128.9971,36.5101],[128.992,36.5172],[128.9857,36.5157],[128.9822,36.5249],[128.9754,36.5273],[128.9719,36.5312],[128.9755,36.5404],[128.9791,36.5457],[128.9917,36.5493],[128.9895,36.5553],[128.9797,36.5649],[128.9839,36.5678],[128.9841,36.5732],[128.9906,36.5771],[128.9921,36.5814],[128.9995,36.5869],[128.999,36.5935],[128.9997,36.6008],[128.9961,36.6088],[128.9978,36.6119],[128.9966,36.6185],[128.9911,36.6234],[128.9916,36.6364],[128.9947,36.6419],[128.9899,36.648],[128.9964,36.6552],[128.9952,36.6618],[128.9905,36.664],[128.9937,36.6695],[128.9902,36.6742],[128.9945,36.6815],[128.9918,36.6889],[128.9927,36.6928],[128.9974,36.6954],[128.9964,36.7061],[128.9995,36.7144],[128.9995,36.719],[128.9961,36.7226],[128.9972,36.7274],[128.9874,36.7356],[128.9896,36.7383],[128.9902,36.7471],[128.9825,36.7461],[128.9698,36.7472],[128.964,36.7522],[128.9588,36.7655],[128.9546,36.7703],[128.9424,36.7738],[128.9313,36.7679],[128.926,36.7691],[128.9206,36.7673],[128.9126,36.7739],[128.9043,36.7753],[128.8995,36.7735],[128.8914,36.7735],[128.886,36.7781],[128.8846,36.784],[128.8748,36.7849],[128.8644,36.7944],[128.8639,36.7987],[128.8553,36.8019],[128.8434,36.8035],[128.8412,36.8092],[128.8195,36.8097],[128.8206,36.8055],[128.8178,36.8003],[128.8124,36.7955],[128.8034,36.8062],[128.8031,36.8107],[128.8064,36.8206],[128.8014,36.823],[128.7942,36.8149],[128.7821,36.8096],[128.777,36.8051],[128.7705,36.8058],[128.7662,36.8028],[128.7587,36.81],[128.755,36.8075],[128.7465,36.8071],[128.7434,36.7961],[128.7419,36.7914],[128.7369,36.7911],[128.7364,36.7832],[128.7454,36.7774],[128.7362,36.7663],[128.7429,36.7558],[128.7429,36.75],[128.7373,36.7442],[128.7365,36.7389],[128.7319,36.7291],[128.7353,36.7268],[128.7338,36.7209],[128.7291,36.7138],[128.7378,36.7039],[128.7344,36.7004],[128.7274,36.6956],[128.7163,36.7034],[128.7091,36.6998],[128.703,36.7021],[128.6984,36.7064],[128.692,36.7025],[128.6786,36.6992],[128.6728,36.705],[128.6729,36.7077],[128.6628,36.7148],[128.652,36.7107],[128.6391,36.7202],[128.6304,36.7198],[128.6274,36.7168],[128.6208,36.7157],[128.6155,36.7119],[128.6083,36.7169],[128.6002,36.7153],[128.5958,36.7123],[128.5976,36.7028],[128.5998,36.7018],[128.6048,36.6926],[128.6092,36.6925],[128.6098,36.6858],[128.6019,36.679],[128.605,36.6723],[128.6032,36.6689],[128.6057,36.6625],[128.6046,36.6525],[128.5964,36.6525],[128.5867,36.6503],[128.5819,36.647],[128.577,36.6499],[128.5662,36.646],[128.565,36.6406],[128.5553,36.6354],[128.5522,36.6372],[128.5471,36.6324],[128.5397,36.6336],[128.5324,36.6298],[128.5244,36.6283],[128.522,36.6196],[128.5294,36.618],[128.5349,36.6142],[128.5295,36.6019],[128.5132,36.6007],[128.5066,36.6021],[128.5018,36.6059],[128.4939,36.5997],[128.4909,36.5887],[128.4992,36.5844]]]},"properties":{"sigun":"안동시"}},
{"type":"Feature","geometry":{"type":"Polygon","coordinates":[[[128.2567,36.2011],[128.2625,36.1976],[128.2713,36.1953],[128.2706,36.1914],[128.2731,36.1824],[128.2702,36.1783],[128.2706,36.1741],[128.278,36.1713],[128.2824,36.1722],[128.2918,36.1707],[128.2951,36.1683],[128.2907,36.1541],[128.2875,36.1529],[128.2873,36.1474],[128.2804,36.1429],[128.2871,36.1382],[128.2944,36.1354],[128.2941,36.1307],[128.2774,36.1137],[128.2756,36.1035],[128.2806,36.1018],[128.2924,36.0944],[128.2932,36.091],[128.2977,36.0876],[128.306,36.086],[128.3214,36.0918],[128.3306,36.0915],[128.3361,36.0822],[128.3409,36.0817],[128.3453,36.0769],[128.347,36.0717],[128.3615,36.0607],[128.3711,36.0661],[128.3786,36.0655],[128.385,36.0702],[128.3826,36.074],[128.3984,36.0904],[128.3982,36.0922],[128.4037,36.0919],[128.4085,36.0833],[128.4157,36.0826],[128.4235,36.0869],[128.4293,36.0803],[128.4435,36.0788],[128.4535,36.0724],[128.4627,36.0697],[128.4688,36.0727],[128.4634,36.0792],[128.465,36.0833],[128.4746,36.0898],[128.4769,36.0928],[128.4754,36.0987],[128.4795,36.1015],[128.4788,36.105],[128.4827,36.1103],[128.4891,36.1153],[128.4911,36.1217],[128.4944,36.1242],[128.4967,36.1158],[128.5083,36.1107],[128.5197,36.1147],[128.5264,36.1115],[128.5348,36.1124],[128.5396,36.1101],[128.5431,36.1122],[128.5481,36.1089],[128.5522,36.1102],[128.5598,36.1092],[128.5631,36.1117],[128.5619,36.1193],[128.5549,36.1213],[128.5529,36.1284],[128.5486,36.131],[128.5526,36.1385],[128.5481,36.141],[128.5483,36.1479],[128.5505,36.1507],[128.5425,36.1548],[128.5405,36.1616],[128.5444,36.1661],[128.5536,36.1653],[128.5543,36.1734],[128.5574,36.178],[128.5491,36.1781],[128.5459,36.1817],[128.5389,36.1937],[128.5241,36.2007],[128.518,36.2005],[128.5126,36.1912],[128.5043,36.185],[128.5036,36.1928],[128.4947,36.1977],[128.4945,36.2053],[128.4888,36.2134],[128.4896,36.2187],[128.4863,36.2239],[128.4796,36.2245],[128.4861,36.2312],[128.4848,36.2341],[128.478,36.2339],[128.4702,36.2293],[128.462,36.2284],[128.4529,36.2233],[128.4408,36.218],[128.4376,36.2224],[128.4383,36.2266],[128.4336,36.2352],[128.4238,36.2366],[128.4238,36.2404],[128.4193,36.2457],[128.4214,36.2506],[128.4166,36.2576],[128.4211,36.2615],[128.4215,36.2686],[128.4265,36.2737],[128.4237,36.2789],[128.414,36.2831],[128.4113,36.2875],[128.4016,36.2895],[128.3966,36.2935],[128.3956,36.2975],[128.3879,36.3035],[128.3898,36.3079],[128.381,36.3124],[128.3792,36.3227],[128.3728,36.3248],[128.3667,36.3335],[128.3661,36.3389],[128.3548,36.3439],[128.3508,36.3511],[128.3411,36.3485],[128.3345,36.3488],[128.3309,36.3432],[128.3256,36.3426],[128.3162,36.3354],[128.3141,36.3306],[128.3049,36.3326],[128.3046,36.3381],[128.3016,36.3436],[128.2934,36.348],[128.2908,36.3451],[128.284,36.3473],[128.2775,36.3501],[128.2785,36.355],[128.2719,36.3618],[128.2588,36.3619],[128.2533,36.3604],[128.251,36.357],[128.2514,36.3518],[128.2478,36.3509],[128.2379,36.3421],[128.23,36.3298],[128.232,36.3242],[128.2309,36.3146],[128.2286,36.3086],[128.2292,36.3044],[128.2185,36.3071],[128.2126,36.3051],[128.2068,36.2989],[128.1992,36.2982],[128.1895,36.3006],[128.1849,36.2974],[128.1768,36.2975],[128.1724,36.2998],[128.1624,36.2974],[128.1544,36.2943],[128.1484,36.288],[128.1402,36.2863],[128.1358,36.28],[128.1328,36.2679],[128.1372,36.261],[128.137,36.2572],[128.1415,36.2583],[128.1514,36.2565],[128.1619,36.2565],[128.1676,36.2536],[128.1691,36.2485],[128.1732,36.2454],[128.1881,36.2438],[128.1969,36.2447],[128.2017,36.2399],[128.2144,36.2367],[128.2182,36.2306],[128.2258,36.2317],[128.2362,36.2249],[128.2336,36.2185],[128.2342,36.2142],[128.2386,36.2072],[128.2337,36.2019],[128.2443,36.1991],[128.2567,36.2011]]]},"properties":{"sigun":"구미시"}},
{"type":"Feature","geometry":{"type":"Polygon","coordinates":[[[128.4489,36.8634],[128.4471,36.8546],[128.4491,36.8489],[128.4593,36.8456],[128.4621,36.8468],[128.4813,36.8349],[128.4825,36.8299],[128.4783,36.824],[128.4771,36.8182],[128.4743,36.8169],[128.471,36.8035],[128.4741,36.7998],[128.4765,36.7866],[128.4743,36.7817],[128.4748,36.7767],[128.4822,36.7767],[128.4957,36.7696],[128.4991,36.7649],[128.5064,36.7638],[128.5153,36.7696],[128.5301,36.7709],[128.5366,36.7734],[128.5419,36.7676],[128.5517,36.7654],[128.5558,36.761],[128.5614,36.7601],[128.566,36.7526],[128.5671,36.7473],[128.5707,36.743],[128.569,36.7387],[128.5785,36.7321],[128.577,36.7299],[128.5762,36.7249],[128.5804,36.7199],[128.5853,36.7091],[128.589,36.7055],[128.5897,36.7009],[128.5976,36.7028],[128.5958,36.7123],[128.6002,36.7153],[128.6083,36.7169],[128.6155,36.7119],[128.6208,36.7157],[128.6274,36.7168],[128.6304,36.7198],[128.6391,36.7202],[128.652,36.7107],[128.6628,36.7148],[128.6729,36.7077],[128.6728,36.705],[128.6786,36.6992],[128.692,36.7025],[128.6984,36.7064],[128.703,36.7021],[128.7091,36.6998],[128.7163,36.7034],[128.7274,36.6956],[128.7344,36.7004],[128.7378,36.7039],[128.7291,36.7138],[128.7338,36.7209],[128.7353,36.7268],[128.7319,36.7291],[128.7365,36.7389],[128.7373,36.7442],[128.7429,36.75],[128.7429,36.7558],[128.7362,36.7663],[128.7454,36.7774],[128.7364,36.7832],[128.7369,36.7911],[128.7419,36.7914],[128.7434,36.7961],[128.736,36.8019],[128.7321,36.7916],[128.7256,36.7928],[128.7212,36.8008],[128.7273,36.8111],[128.7276,36.8188],[128.7183,36.8247],[128.7186,36.8293],[128.7259,36.831],[128.7367,36.8393],[128.7366,36.8442],[128.7324,36.8469],[128.7256,36.8604],[128.7286,36.8627],[128.7199,36.8677],[128.7147,36.8645],[128.7054,36.8671],[128.7014,36.8607],[128.6862,36.8633],[128.6815,36.8575],[128.6772,36.8556],[128.6779,36.8503],[128.6694,36.8434],[128.6641,36.8416],[128.6599,36.8495],[128.6552,36.8526],[128.6433,36.8556],[128.6443,36.8634],[128.6558,36.8692],[128.6553,36.8726],[128.6501,36.8779],[128.6444,36.8801],[128.6374,36.8877],[128.6428,36.8961],[128.6491,36.9095],[128.6545,36.9115],[128.6592,36.9102],[128.6684,36.9198],[128.6601,36.9284],[128.6617,36.938],[128.6666,36.9424],[128.6752,36.9457],[128.6782,36.9537],[128.6814,36.9534],[128.6863,36.9598],[128.6869,36.9689],[128.693,36.9738],[128.6902,36.9793],[128.692,36.9916],[128.6942,36.9984],[128.6929,37.0039],[128.7014,37.0129],[128.7001,37.0248],[128.7023,37.0322],[128.7089,37.0392],[128.7007,37.041],[128.6887,37.0531],[128.6837,37.0516],[128.6754,37.0588],[128.6575,37.0611],[128.6522,37.0655],[128.6446,37.0619],[128.6424,37.0558],[128.6376,37.0514],[128.6303,37.039],[128.6193,37.0495],[128.6088,37.0526],[128.6068,37.0434],[128.5919,37.0423],[128.5839,37.0439],[128.5766,37.0355],[128.5721,37.0361],[128.5652,37.0309],[128.5669,37.0265],[128.5728,37.0219],[128.5699,37.0137],[128.5629,37.008],[128.5564,37.0057],[128.5547,36.9982],[128.5451,36.9931],[128.5381,36.9908],[128.5262,36.9902],[128.516,36.9869],[128.5129,36.9808],[128.5136,36.9768],[128.5049,36.9691],[128.4855,36.9617],[128.485,36.9575],[128.4762,36.9572],[128.4632,36.9474],[128.4602,36.934],[128.457,36.9338],[128.4452,36.9282],[128.4419,36.9279],[128.4454,36.9178],[128.4401,36.9014],[128.427,36.8893],[128.4271,36.881],[128.4244,36.8765],[128.4386,36.8733],[128.4489,36.8634]]]},"properties":{"sigun":"영주시"}},
{"type":"Feature","geometry":{"type":"Polygon","coordinates":[[[128.8752,35.8882],[128.8695,35.8834],[128.866,35.8836],[128.8592,35.8788],[128.8598,35.8737],[128.873,35.866],[128.8751,35.8605],[128.8752,35.851],[128.8785,35.8493],[128.8822,35.8432],[128.8921,35.8446],[128.8945,35.8374],[128.9022,35.8371],[128.9101,35.8316],[128.9149,35.8374],[128.924,35.8336],[128.9336,35.8371],[128.9387,35.8356],[128.944,35.8299],[128.9495,35.833],[128.9592,35.8417],[128.9693,35.8409],[128.9708,35.8354],[128.9777,35.8329],[128.9866,35.8344],[128.9893,35.8378],[129.0003,35.8422],[129.0141,35.8462],[129.0161,35.8498],[129.0187,35.8564],[129.0242,35.8628],[129.027,35.8632],[129.0329,35.8707],[129.026,35.8906],[129.029,35.8982],[129.0285,35.9047],[129.0379,35.9121],[129.0456,35.9127],[129.0485,35.9192],[129.0549,35.9201],[129.0574,35.926],[129.0605,35.9261],[129.0607,35.9343],[129.0629,35.938],[129.0671,35.9423],[129.0785,35.9418],[129.082,35.9375],[129.0946,35.9407],[129.1007,35.9377],[129.1099,35.9298],[129.1139,35.9232],[129.1153,35.917],[129.1212,35.9222],[129.1274,35.9218],[129.1309,35.924],[129.1348,35.9317],[129.1317,35.9377],[129.1284,35.9387],[129.1274,35.9499],[129.1249,35.9507],[129.1178,35.9601],[129.1181,35.9741],[129.1171,35.9855],[129.1106,35.9967],[129.113,36.0014],[129.1105,36.0048],[129.1144,36.0121],[129.1168,36.0126],[129.1227,36.0068],[129.1325,36.0058],[129.1443,36.0115],[129.1404,36.0247],[129.1342,36.0342],[129.1397,36.0432],[129.1463,36.0455],[129.1513,36.0496],[129.1516,36.0548],[129.1493,36.0574],[129.1413,36.058],[129.1334,36.0688],[129.1334,36.0749],[129.1288,36.0809],[129.1199,36.0789],[129.112,36.0798],[129.1108,36.0837],[129.1009,36.0891],[129.0926,36.0998],[129.0932,36.1047],[129.099,36.1071],[129.105,36.1142],[129.1044,36.1166],[129.0977,36.1219],[129.0819,36.1172],[129.0787,36.1116],[129.0713,36.1147],[129.0665,36.1241],[129.0566,36.1317],[129.0593,36.1354],[129.0641,36.1364],[129.0617,36.1435],[129.0506,36.1506],[129.0454,36.1512],[129.0449,36.1567],[129.0316,36.1606],[129.0256,36.159],[129.0122,36.163],[129.0068,36.1626],[128.9979,36.1642],[128.9875,36.168],[128.9783,36.1659],[128.9739,36.1609],[128.9682,36.1615],[128.9623,36.1663],[128.9497,36.169],[128.9409,36.1772],[128.9281,36.1798],[128.9195,36.1854],[128.9145,36.181],[128.9091,36.1807],[128.9042,36.1775],[128.8968,36.1764],[128.8961,36.1734],[128.8942,36.1695],[128.9001,36.1625],[128.8925,36.1555],[128.8902,36.1472],[128.8915,36.1434],[128.8763,36.1424],[128.8684,36.1451],[128.8591,36.1453],[128.851,36.1384],[128.853,36.1277],[128.8502,36.1189],[128.8376,36.1125],[128.8357,36.1058],[128.8308,36.1026],[128.8223,36.1005],[128.8181,36.0972],[128.8164,36.0923],[128.8105,36.0888],[128.7985,36.085],[128.791,36.0867],[128.7768,36.0948],[128.7706,36.0952],[128.7684,36.0995],[128.7645,36.1005],[128.7521,36.0929],[128.7516,36.1036],[128.7469,36.1069],[128.7417,36.1005],[128.7337,36.0946],[128.7252,36.0904],[128.7294,36.081],[128.7238,36.0735],[128.714,36.0756],[128.7114,36.0737],[128.7092,36.0641],[128.7026,36.0556],[128.7047,36.0457],[128.6968,36.0354],[128.7004,36.0313],[128.6993,36.022],[128.6952,36.0163],[128.7005,36.0112],[128.7233,36.006],[128.7289,36.0016],[128.7352,35.9929],[128.74,35.9932],[128.752,35.9907],[128.7608,35.9872],[128.7652,35.9839],[128.7725,35.983],[128.7861,35.988],[128.7908,35.9837],[128.7986,35.9817],[128.8073,35.9751],[128.8118,35.9732],[128.8132,35.9654],[128.8278,35.964],[128.8365,35.9681],[128.8415,35.9623],[128.846,35.9629],[128.8522,35.9595],[128.8603,35.9431],[128.8613,35.9373],[128.8622,35.9285],[128.8574,35.9267],[128.8525,35.9203],[128.8566,35.916],[128.8567,35.9116],[128.8532,35.908],[128.8553,35.8998],[128.8697,35.8941],[128.8752,35.8882]]]},"properties":{"sigun":"영천시"}},
{"type":"Feature","geometry":{"type":"Polygon","coordinates":[[[128.1775,36.5954],[128.1757,36.597],[128.1648,36.5976],[128.1556,36.6011],[128.1512,36.5997],[128.146,36.6061],[128.1345,36.6133],[128.1297,36.6142],[128.1232,36.6193],[128.1156,36.621],[128.1119,36.6161],[128.1121,36.611],[128.1056,36.6068],[128.1018,36.6086],[128.0923,36.6078],[128.0868,36.6092],[128.0759,36.6054],[128.0685,36.5961],[128.0653,36.5896],[128.0614,36.5886],[128.0564,36.5828],[128.0657,36.5624],[128.0589,36.5553],[128.0522,36.5461],[128.0406,36.5483],[128.0294,36.5475],[128.0166,36.544],[128.0049,36.5507],[127.9978,36.5497],[127.9914,36.5444],[127.9826,36.5453],[127.9787,36.5424],[127.981,36.5354],[127.9778,36.5324],[127.9815,36.5283],[127.9795,36.5214],[127.9795,36.5141],[127.977,36.5136],[127.961,36.5202],[127.9582,36.5269],[127.9529,36.5269],[127.9442,36.5259],[127.9362,36.5282],[127.931,36.5347],[127.9377,36.5379],[127.9358,36.5435],[127.9404,36.5464],[127.9413,36.5511],[127.933,36.5583],[127.9372,36.5643],[127.9342,36.5739],[127.9307,36.5776],[127.9334,36.5839],[127.9331,36.5906],[127.9278,36.5943],[127.9204,36.6036],[127.9155,36.6063],[127.9164,36.6112],[127.9097,36.6257],[127.9038,36.6277],[127.8963,36.6265],[127.8894,36.6295],[127.8891,36.6403],[127.8823,36.6462],[127.8798,36.6576],[127.8741,36.6554],[127.8706,36.6439],[127.8616,36.6342],[127.848,36.6334],[127.8475,36.6249],[127.8511,36.6189],[127.8567,36.618],[127.8591,36.6132],[127.8496,36.6128],[127.8421,36.6086],[127.8322,36.6123],[127.8238,36.6126],[127.8194,36.6082],[127.8148,36.6088],[127.8065,36.6032],[127.7984,36.6023],[127.7974,36.592],[127.8002,36.5855],[127.8046,36.5817],[127.8159,36.578],[127.8241,36.5717],[127.8301,36.5744],[127.8357,36.5714],[127.8432,36.5697],[127.8481,36.5716],[127.8621,36.5674],[127.8721,36.5587],[127.8734,36.5553],[127.8707,36.5431],[127.8741,36.5373],[127.8815,36.536],[127.8924,36.5304],[127.9019,36.5282],[127.9006,36.5247],[127.9022,36.5127],[127.9068,36.5075],[127.897,36.4987],[127.8885,36.4931],[127.8805,36.4933],[127.8761,36.4884],[127.8752,36.4832],[127.8807,36.4807],[127.8788,36.4658],[127.8824,36.461],[127.8778,36.45],[127.8749,36.4486],[127.873,36.4417],[127.8753,36.4285],[127.8804,36.4276],[127.8828,36.4235],[127.8792,36.4169],[127.8732,36.41],[127.8731,36.4059],[127.8636,36.4031],[127.8656,36.3948],[127.8685,36.3912],[127.8751,36.3912],[127.8792,36.3833],[127.8842,36.3793],[127.8829,36.3738],[127.8863,36.3639],[127.8913,36.3596],[127.8861,36.3547],[127.8814,36.3449],[127.875,36.3455],[127.8675,36.3364],[127.8637,36.3366],[127.8563,36.3311],[127.8521,36.3304],[127.8507,36.3206],[127.8461,36.3183],[127.8411,36.3096],[127.8472,36.3006],[127.8457,36.2964],[127.8494,36.2889],[127.8513,36.2757],[127.8627,36.2775],[127.8843,36.2737],[127.888,36.2801],[127.892,36.2922],[127.9051,36.3024],[127.907,36.2861],[127.9134,36.2809],[127.9309,36.2782],[127.9379,36.2691],[127.9473,36.2672],[127.9482,36.2575],[127.9545,36.2572],[127.9602,36.2524],[127.9709,36.2504],[127.979,36.2541],[127.9769,36.2589],[127.9822,36.2642],[127.9914,36.2654],[127.9944,36.2674],[128.0006,36.2664],[128.0081,36.2716],[128.0119,36.2714],[128.0156,36.268],[128.0262,36.2679],[128.0328,36.2619],[128.048,36.2571],[128.0447,36.2527],[128.051,36.2442],[128.0603,36.2454],[128.0665,36.2429],[128.0766,36.2416],[128.0871,36.2488],[128.0879,36.2532],[128.0965,36.2523],[128.1022,36.2433],[128.1087,36.2371],[128.119,36.2432],[128.1209,36.2461],[128.1201,36.2528],[128.1311,36.2514],[128.137,36.2572],[128.1372,36.261],[128.1328,36.2679],[128.1358,36.28],[128.1402,36.2863],[128.1484,36.288],[128.1544,36.2943],[128.1624,36.2974],[128.1724,36.2998],[128.1768,36.2975],[128.1849,36.2974],[128.1895,36.3006],[128.1992,36.2982],[128.2068,36.2989],[128.2126,36.3051],[128.2185,36.3071],[128.2292,36.3044],[128.2286,36.3086],[128.2309,36.3146],[128.232,36.3242],[128.23,36.3298],[128.2379,36.3421],[128.2478,36.3509],[128.2514,36.3518],[128.251,36.357],[128.2533,36.3604],[128.2588,36.3619],[128.2719,36.3618],[128.2785,36.355],[128.2775,36.3501],[128.284,36.3473],[128.297,36.3555],[128.3099,36.361],[128.3117,36.3639],[128.3114,36.3758],[128.3177,36.3868],[128.3266,36.3861],[128.3324,36.3954],[128.3327,36.3992],[128.3379,36.4029],[128.3391,36.4065],[128.3333,36.4119],[128.3321,36.4212],[128.323,36.4276],[128.3222,36.4326],[128.3262,36.438],[128.3231,36.4455],[128.3184,36.4476],[128.3129,36.4564],[128.3048,36.4573],[128.299,36.4634],[128.2947,36.4649],[128.2892,36.4623],[128.2805,36.4637],[128.2781,36.4725],[128.2703,36.477],[128.2653,36.4761],[128.2603,36.4783],[128.2699,36.4827],[128.2706,36.4927],[128.2689,36.5001],[128.2644,36.5075],[128.2661,36.5135],[128.2653,36.5239],[128.2686,36.533],[128.2591,36.5323],[128.2552,36.534],[128.2482,36.5328],[128.2365,36.5286],[128.2295,36.5297],[128.2221,36.5333],[128.2187,36.5408],[128.2159,36.5566],[128.2161,36.5639],[128.2215,36.5695],[128.2173,36.5737],[128.2059,36.5732],[128.205,36.5785],[128.1943,36.5829],[128.1894,36.5836],[128.1835,36.5816],[128.1785,36.5836],[128.18,36.59],[128.1775,36.5954]]]},"properties":{"sigun":"상주시"}},
{"type":"Feature","geometry":{"type":"Polygon","coordinates":[[[128.0722,36.7081],[128.0559,36.7086],[128.0488,36.7075],[128.0398,36.7145],[128.0317,36.7191],[128.0261,36.7191],[128.0222,36.7259],[128.0143,36.7283],[128.0084,36.7278],[128.0026,36.7166],[127.9984,36.7181],[127.9868,36.7175],[127.9804,36.72],[127.9733,36.7256],[127.9709,36.7306],[127.9608,36.7368],[127.9568,36.7331],[127.9522,36.7199],[127.948,36.7175],[127.9491,36.706],[127.9317,36.7063],[127.9316,36.6934],[127.9277,36.6898],[127.9154,36.694],[127.9129,36.6926],[127.8946,36.6929],[127.8874,36.6913],[127.8855,36.6878],[127.8773,36.6822],[127.8792,36.6784],[127.8877,36.6789],[127.892,36.6823],[127.9067,36.6802],[127.9129,36.6777],[127.9185,36.668],[127.9256,36.6692],[127.9323,36.6652],[127.9315,36.6536],[127.9392,36.6496],[127.9358,36.6434],[127.936,36.6336],[127.9322,36.6246],[127.9316,36.6179],[127.9249,36.6155],[127.9251,36.6081],[127.9204,36.6036],[127.9278,36.5943],[127.9331,36.5906],[127.9334,36.5839],[127.9307,36.5776],[127.9342,36.5739],[127.9372,36.5643],[127.933,36.5583],[127.9413,36.5511],[127.9404,36.5464],[127.9358,36.5435],[127.9377,36.5379],[127.931,36.5347],[127.9362,36.5282],[127.9442,36.5259],[127.9529,36.5269],[127.9582,36.5269],[127.961,36.5202],[127.977,36.5136],[127.9795,36.5141],[127.9795,36.5214],[127.9815,36.5283],[127.9778,36.5324],[127.981,36.5354],[127.9787,36.5424],[127.9826,36.5453],[127.9914,36.5444],[127.9978,36.5497],[128.0049,36.5507],[128.0166,36.544],[128.0294,36.5475],[128.0406,36.5483],[128.0522,36.5461],[128.0589,36.5553],[128.0657,36.5624],[128.0564,36.5828],[128.0614,36.5886],[128.0653,36.5896],[128.0685,36.5961],[128.0759,36.6054],[128.0868,36.6092],[128.0923,36.6078],[128.1018,36.6086],[128.1056,36.6068],[128.1121,36.611],[128.1119,36.6161],[128.1156,36.621],[128.1232,36.6193],[128.1297,36.6142],[128.1345,36.6133],[128.146,36.6061],[128.1512,36.5997],[128.1556,36.6011],[128.1648,36.5976],[128.1757,36.597],[128.1775,36.5954],[128.18,36.59],[128.1785,36.5836],[128.1835,36.5816],[128.1894,36.5836],[128.1943,36.5829],[128.205,36.5785],[128.2059,36.5732],[128.2173,36.5737],[128.2215,36.5695],[128.2161,36.5639],[128.2159,36.5566],[128.2187,36.5408],[128.2221,36.5333],[128.2295,36.5297],[128.2365,36.5286],[128.2482,36.5328],[128.2552,36.534],[128.2591,36.5323],[128.2686,36.533],[128.2633,36.5424],[128.2651,36.5503],[128.2702,36.5521],[128.279,36.5517],[128.2977,36.5531],[128.2949,36.5588],[128.296,36.5639],[128.2961,36.5748],[128.295,36.5787],[128.2855,36.5781],[128.2801,36.5909],[128.2716,36.6],[128.2666,36.6028],[128.2619,36.611],[128.2718,36.6099],[128.2758,36.6154],[128.2836,36.6172],[128.2896,36.6295],[128.2935,36.6324],[128.3063,36.6361],[128.3096,36.6411],[128.3074,36.6539],[128.3096,36.6563],[128.319,36.6552],[128.3203,36.6445],[128.3256,36.6441],[128.3333,36.6407],[128.3435,36.647],[128.3479,36.6472],[128.3491,36.6548],[128.3415,36.6562],[128.3343,36.6616],[128.3324,36.6673],[128.3264,36.6688],[128.3204,36.6783],[128.3308,36.6851],[128.3362,36.6936],[128.3311,36.6995],[128.3352,36.7037],[128.3373,36.7094],[128.3314,36.7205],[128.3331,36.7321],[128.3386,36.7408],[128.3596,36.7402],[128.3697,36.7507],[128.3628,36.7608],[128.3677,36.7675],[128.3642,36.775],[128.366,36.7783],[128.3674,36.7917],[128.3696,36.7947],[128.3666,36.8006],[128.3626,36.8005],[128.3564,36.8041],[128.3544,36.8092],[128.3342,36.817],[128.3235,36.8154],[128.3166,36.8166],[128.3157,36.8231],[128.3107,36.8285],[128.2966,36.8344],[128.29,36.843],[128.2869,36.8446],[128.2845,36.8531],[128.282,36.8566],[128.269,36.8601],[128.264,36.8642],[128.2519,36.8673],[128.2405,36.8712],[128.239,36.8652],[128.2353,36.8609],[128.234,36.8557],[128.2378,36.8509],[128.2368,36.8481],[128.2228,36.8473],[128.2155,36.849],[128.2128,36.8394],[128.2154,36.8339],[128.2161,36.8228],[128.2185,36.8154],[128.217,36.8131],[128.2088,36.8135],[128.1922,36.8179],[128.1827,36.8181],[128.1759,36.8212],[128.1652,36.82],[128.156,36.8233],[128.1465,36.8294],[128.1449,36.8324],[128.136,36.8341],[128.132,36.8263],[128.1226,36.8225],[128.1181,36.8223],[128.1122,36.8189],[128.1068,36.8058],[128.1008,36.8058],[128.0926,36.8028],[128.0924,36.7965],[128.084,36.7994],[128.0815,36.8068],[128.0675,36.8158],[128.0587,36.8161],[128.0576,36.8071],[128.0542,36.8049],[128.0563,36.799],[128.0551,36.7932],[128.0508,36.7882],[128.0446,36.7846],[128.0465,36.78],[128.0444,36.7712],[128.0408,36.7674],[128.0321,36.7546],[128.0325,36.7475],[128.0438,36.7381],[128.0516,36.7361],[128.0556,36.7287],[128.069,36.7217],[128.074,36.7116],[128.0722,36.7081]]]},"properties":{"sigun":"문경시"}},
{"type":"Feature","geometry":{"type":"Polygon","coordinates":[[[128.76,35.8655],[128.7539,35.864],[128.7516,35.8575],[128.7466,35.8566],[128.7407,35.8517],[128.7358,35.8509],[128.725,35.8578],[128.7262,35.8442],[128.7252,35.8366],[128.7189,35.8357],[128.7125,35.8305],[128.7088,35.8267],[128.7097,35.8207],[128.7132,35.8179],[128.7177,35.8067],[128.7113,35.8051],[128.6974,35.7941],[128.6943,35.7966],[128.6891,35.7924],[128.6826,35.7899],[128.6813,35.7856],[128.6866,35.7784],[128.6887,35.7694],[128.6919,35.7652],[128.6925,35.7599],[128.6962,35.7566],[128.6926,35.748],[128.6944,35.7439],[128.7019,35.7437],[128.7048,35.7353],[128.7108,35.7311],[128.7153,35.7208],[128.7222,35.7192],[128.7311,35.7201],[128.7361,35.7163],[128.7376,35.709],[128.7436,35.7039],[128.7539,35.7006],[128.7656,35.7004],[128.7662,35.7068],[128.7628,35.7085],[128.7644,35.7161],[128.774,35.7213],[128.7747,35.7294],[128.7844,35.7315],[128.7843,35.7348],[128.7893,35.7423],[128.7988,35.7431],[128.8009,35.745],[128.8104,35.7401],[128.8155,35.7432],[128.8271,35.7384],[128.837,35.7452],[128.849,35.7412],[128.855,35.7438],[128.8584,35.7474],[128.8546,35.7539],[128.8567,35.7573],[128.8604,35.7552],[128.8665,35.758],[128.8762,35.748],[128.8865,35.7512],[128.8916,35.7548],[128.8948,35.7638],[128.8987,35.7616],[128.9035,35.7469],[128.9141,35.7581],[128.9261,35.7555],[128.9345,35.7613],[128.9404,35.7711],[128.9419,35.7771],[128.9463,35.7815],[128.9447,35.7868],[128.9497,35.7933],[128.9509,35.7982],[128.9556,35.8028],[128.9544,35.8112],[128.9599,35.8233],[128.9659,35.8345],[128.9708,35.8354],[128.9693,35.8409],[128.9592,35.8417],[128.9495,35.833],[128.944,35.8299],[128.9387,35.8356],[128.9336,35.8371],[128.924,35.8336],[128.9149,35.8374],[128.9101,35.8316],[128.9022,35.8371],[128.8945,35.8374],[128.8921,35.8446],[128.8822,35.8432],[128.8785,35.8493],[128.8752,35.851],[128.8751,35.8605],[128.873,35.866],[128.8598,35.8737],[128.8592,35.8788],[128.866,35.8836],[128.8695,35.8834],[128.8752,35.8882],[128.8697,35.8941],[128.8553,35.8998],[128.8532,35.908],[128.8567,35.9116],[128.8566,35.916],[128.8525,35.9203],[128.8574,35.9267],[128.8622,35.9285],[128.8613,35.9373],[128.8603,35.9431],[128.8522,35.9595],[128.846,35.9629],[128.8415,35.9623],[128.8365,35.9681],[128.8278,35.964],[128.8132,35.9654],[128.8118,35.9732],[128.8073,35.9751],[128.7986,35.9817],[128.7908,35.9837],[128.7861,35.988],[128.7725,35.983],[128.7652,35.9839],[128.7608,35.9872],[128.752,35.9907],[128.74,35.9932],[128.7352,35.9929],[128.7314,35.9871],[128.7388,35.9763],[128.745,35.974],[128.7461,35.9708],[128.7421,35.9598],[128.739,35.9553],[128.7418,35.948],[128.7456,35.9444],[128.7394,35.935],[128.7384,35.9284],[128.7445,35.9219],[128.7566,35.9149],[128.7604,35.907],[128.7572,35.9046],[128.7576,35.8959],[128.7619,35.8832],[128.7582,35.8782],[128.7607,35.8739],[128.7586,35.8706],[128.76,35.8655]]]},"properties":{"sigun":"경산시"}},
{"type":"Feature","geometry":{"type":"Polygon","coordinates":[[[128.6093,36.4148],[128.6069,36.41],[128.599,36.4095],[128.5968,36.4115],[128.5941,36.4361],[128.5887,36.4393],[128.5773,36.44],[128.5703,36.451],[128.5668,36.4521],[128.5662,36.459],[128.5612,36.4629],[128.5594,36.4722],[128.5527,36.4757],[128.552,36.4882],[128.5439,36.4904],[128.5393,36.4953],[128.5318,36.4981],[128.5143,36.4976],[128.5035,36.5011],[128.4989,36.5136],[128.491,36.5178],[128.4831,36.5138],[128.4763,36.5139],[128.4748,36.4987],[128.4644,36.4988],[128.4616,36.4957],[128.4646,36.492],[128.4599,36.4884],[128.4531,36.491],[128.4442,36.4972],[128.4334,36.5031],[128.4325,36.5111],[128.4369,36.5162],[128.4292,36.522],[128.4188,36.5224],[128.4136,36.5204],[128.4052,36.5129],[128.3986,36.5089],[128.3818,36.5046],[128.3708,36.5055],[128.3684,36.5095],[128.3701,36.5146],[128.3661,36.5274],[128.3618,36.5316],[128.3529,36.5272],[128.3474,36.5272],[128.3408,36.5246],[128.3453,36.5142],[128.3398,36.5031],[128.3365,36.5006],[128.3374,36.4892],[128.3304,36.4835],[128.32,36.4714],[128.3144,36.4706],[128.3087,36.4642],[128.3129,36.4564],[128.3184,36.4476],[128.3231,36.4455],[128.3262,36.438],[128.3222,36.4326],[128.323,36.4276],[128.3321,36.4212],[128.3333,36.4119],[128.3391,36.4065],[128.3379,36.4029],[128.3327,36.3992],[128.3324,36.3954],[128.3266,36.3861],[128.3177,36.3868],[128.3114,36.3758],[128.3117,36.3639],[128.3099,36.361],[128.297,36.3555],[128.284,36.3473],[128.2908,36.3451],[128.2934,36.348],[128.3016,36.3436],[128.3046,36.3381],[128.3049,36.3326],[128.3141,36.3306],[128.3162,36.3354],[128.3256,36.3426],[128.3309,36.3432],[128.3345,36.3488],[128.3411,36.3485],[128.3508,36.3511],[128.3548,36.3439],[128.3661,36.3389],[128.3667,36.3335],[128.3728,36.3248],[128.3792,36.3227],[128.381,36.3124],[128.3898,36.3079],[128.3879,36.3035],[128.3956,36.2975],[128.3966,36.2935],[128.4016,36.2895],[128.4113,36.2875],[128.4131,36.2939],[128.417,36.299],[128.4278,36.2991],[128.4345,36.3057],[128.4389,36.3059],[128.4392,36.3122],[128.4516,36.327],[128.4556,36.3267],[128.456,36.3251],[128.4669,36.322],[128.4729,36.3184],[128.4732,36.3121],[128.4876,36.3082],[128.4979,36.3034],[128.5062,36.3034],[128.5107,36.3007],[128.5152,36.302],[128.5248,36.3],[128.5293,36.2939],[128.5387,36.2944],[128.5455,36.2916],[128.5491,36.2857],[128.5519,36.2749],[128.5568,36.2736],[128.5626,36.2768],[128.5669,36.2742],[128.5715,36.275],[128.5764,36.2796],[128.5955,36.2771],[128.5985,36.2708],[128.607,36.2712],[128.6168,36.2677],[128.624,36.2668],[128.6364,36.2612],[128.6407,36.2576],[128.6382,36.2471],[128.6327,36.2438],[128.631,36.2388],[128.6367,36.2331],[128.6357,36.2213],[128.6318,36.2162],[128.6339,36.2094],[128.6399,36.2081],[128.6424,36.2121],[128.6494,36.2177],[128.6634,36.2214],[128.6694,36.2092],[128.6828,36.2151],[128.6944,36.2141],[128.6999,36.2088],[128.6968,36.2023],[128.7087,36.1986],[128.7189,36.2001],[128.7214,36.198],[128.7277,36.2008],[128.7406,36.1992],[128.7457,36.1946],[128.7494,36.1959],[128.7527,36.2027],[128.7589,36.2004],[128.77,36.1935],[128.7743,36.195],[128.7836,36.1939],[128.786,36.1962],[128.796,36.1938],[128.8031,36.2008],[128.8039,36.21],[128.8141,36.211],[128.8226,36.2158],[128.83,36.2176],[128.8347,36.2154],[128.8412,36.2175],[128.8519,36.2149],[128.8586,36.208],[128.8707,36.2037],[128.8731,36.1997],[128.8825,36.199],[128.8937,36.2034],[128.8966,36.2069],[128.8955,36.2136],[128.8873,36.2169],[128.8817,36.2208],[128.8805,36.2258],[128.8697,36.2315],[128.8792,36.2361],[128.8858,36.2433],[128.8813,36.2525],[128.8753,36.2551],[128.857,36.2551],[128.8466,36.2617],[128.852,36.2665],[128.8627,36.2681],[128.8631,36.2738],[128.8777,36.2758],[128.8786,36.2924],[128.8803,36.297],[128.8893,36.2974],[128.8914,36.3055],[128.8874,36.3119],[128.8875,36.3164],[128.8928,36.3209],[128.8929,36.3258],[128.8886,36.3307],[128.8897,36.3338],[128.8856,36.3434],[128.8766,36.3448],[128.8808,36.3562],[128.8762,36.3647],[128.8721,36.3661],[128.8776,36.3751],[128.8712,36.3782],[128.8596,36.3878],[128.8504,36.3883],[128.8513,36.3993],[128.8443,36.4079],[128.8453,36.4121],[128.8411,36.4224],[128.8343,36.4276],[128.8345,36.4358],[128.8298,36.4437],[128.8302,36.4518],[128.823,36.4521],[128.8125,36.455],[128.8095,36.4591],[128.7999,36.4588],[128.7926,36.4658],[128.7825,36.4648],[128.776,36.4688],[128.773,36.4756],[128.7674,36.4809],[128.7593,36.4846],[128.7539,36.4851],[128.7471,36.4892],[128.7342,36.4784],[128.7278,36.4764],[128.7179,36.4819],[128.7098,36.477],[128.7074,36.4642],[128.7043,36.4545],[128.7066,36.448],[128.6996,36.4474],[128.69,36.4439],[128.6809,36.4447],[128.6781,36.4384],[128.6736,36.4365],[128.6685,36.4389],[128.6629,36.4375],[128.6536,36.4295],[128.6458,36.4285],[128.6282,36.4239],[128.6236,36.4191],[128.6154,36.4195],[128.6093,36.4148]]]},"properties":{"sigun":"의성군"}},
{"type":"Feature","geometry":{"type":"Polygon","coordinates":[[[129.1612,36.4537],[129.1619,36.4582],[129.1528,36.4669],[129.1479,36.4778],[129.154,36.4929],[129.1521,36.5003],[129.1443,36.499],[129.1328,36.5009],[129.1316,36.5071],[129.1278,36.5131],[129.1305,36.5185],[129.1268,36.5221],[129.1311,36.5267],[129.1287,36.5338],[129.1224,36.5351],[129.1183,36.5385],[129.1118,36.5398],[129.1082,36.5461],[129.1001,36.5428],[129.0967,36.5441],[129.0863,36.5435],[129.0753,36.5464],[129.0699,36.543],[129.065,36.5463],[129.0654,36.55],[129.0598,36.5553],[129.0521,36.5588],[129.0459,36.5736],[129.0462,36.58],[129.0368,36.5822],[129.032,36.5881],[129.0246,36.5897],[129.0224,36.5879],[129.0087,36.5897],[129.0037,36.5946],[128.999,36.5935],[128.9995,36.5869],[128.9921,36.5814],[128.9906,36.5771],[128.9841,36.5732],[128.9839,36.5678],[128.9797,36.5649],[128.9895,36.5553],[128.9917,36.5493],[128.9791,36.5457],[128.9755,36.5404],[128.9719,36.5312],[128.9754,36.5273],[128.9822,36.5249],[128.9857,36.5157],[128.992,36.5172],[128.9971,36.5101],[128.9956,36.5002],[128.9897,36.4955],[128.9883,36.4909],[128.9828,36.4862],[128.9755,36.4842],[128.9749,36.4797],[128.9806,36.4759],[128.9796,36.4687],[128.9734,36.4669],[128.9688,36.4631],[128.9703,36.4523],[128.976,36.443],[128.9732,36.4391],[128.9731,36.4315],[128.9817,36.424],[128.9838,36.4136],[128.9839,36.4046],[128.9758,36.3926],[128.9747,36.3867],[128.9674,36.3778],[128.9647,36.3692],[128.9616,36.3667],[128.9662,36.3611],[128.9628,36.3515],[128.9661,36.3465],[128.9621,36.3384],[128.9507,36.3358],[128.9447,36.3259],[128.9403,36.3254],[128.933,36.318],[128.9308,36.3057],[128.9267,36.3066],[128.9195,36.3049],[128.9128,36.2985],[128.8983,36.2959],[128.8893,36.2974],[128.8803,36.297],[128.8786,36.2924],[128.8777,36.2758],[128.8631,36.2738],[128.8627,36.2681],[128.852,36.2665],[128.8466,36.2617],[128.857,36.2551],[128.8753,36.2551],[128.8813,36.2525],[128.8858,36.2433],[128.8792,36.2361],[128.8697,36.2315],[128.8805,36.2258],[128.8817,36.2208],[128.8873,36.2169],[128.8955,36.2136],[128.8966,36.2069],[128.8937,36.2034],[128.8825,36.199],[128.8812,36.1901],[128.8852,36.1839],[128.8902,36.1822],[128.8912,36.1765],[128.8961,36.1734],[128.8968,36.1764],[128.9042,36.1775],[128.9091,36.1807],[128.9145,36.181],[128.9195,36.1854],[128.9281,36.1798],[128.9409,36.1772],[128.9497,36.169],[128.9623,36.1663],[128.9682,36.1615],[128.9739,36.1609],[128.9783,36.1659],[128.9875,36.168],[128.9915,36.1707],[128.9923,36.1759],[129.0007,36.1797],[129.0097,36.1789],[129.0253,36.1825],[129.0284,36.1875],[129.0276,36.1929],[129.0359,36.2052],[129.0355,36.2081],[129.0393,36.219],[129.0438,36.2221],[129.0513,36.2221],[129.0566,36.224],[129.0626,36.2202],[129.0661,36.2215],[129.0669,36.2268],[129.0809,36.234],[129.0725,36.2522],[129.0654,36.2537],[129.062,36.252],[129.0567,36.255],[129.0531,36.2596],[129.053,36.2637],[129.0597,36.2647],[129.0599,36.268],[129.0657,36.2738],[129.0807,36.2774],[129.0903,36.2726],[129.0935,36.2739],[129.099,36.271],[129.1028,36.2648],[129.1059,36.2669],[129.1126,36.2645],[129.1172,36.2661],[129.1239,36.2622],[129.1265,36.2642],[129.1324,36.2621],[129.1379,36.2551],[129.1389,36.2495],[129.1449,36.2439],[129.1471,36.2393],[129.1634,36.2318],[129.171,36.2246],[129.1789,36.2272],[129.1904,36.2365],[129.1947,36.2434],[129.198,36.2445],[129.199,36.2501],[129.2041,36.2562],[129.2057,36.2646],[129.214,36.2717],[129.2207,36.2732],[129.2214,36.2776],[129.2257,36.2824],[129.221,36.2878],[129.2241,36.2909],[129.2239,36.2991],[129.2197,36.3035],[129.2253,36.3086],[129.2364,36.3142],[129.2388,36.3173],[129.2493,36.319],[129.2519,36.3209],[129.2553,36.3237],[129.2599,36.3335],[129.2514,36.3389],[129.243,36.346],[129.2359,36.344],[129.2281,36.3439],[129.2241,36.3465],[129.2201,36.3591],[129.2162,36.361],[129.2188,36.3731],[129.2279,36.3799],[129.2263,36.3836],[129.2207,36.3866],[129.2225,36.3919],[129.2281,36.3959],[129.2266,36.3988],[129.212,36.4077],[129.2119,36.4133],[129.2089,36.4212],[129.1981,36.4303],[129.1867,36.4269],[129.1715,36.4344],[129.1686,36.4415],[129.1691,36.4464],[129.1612,36.4537]]]},"properties":{"sigun":"청송군"}},
{"type":"Feature","geometry":{"type":"Polygon","coordinates":[[[129.2769,36.6916],[129.2814,36.6936],[129.2822,36.6981],[129.2866,36.7024],[129.2863,36.7084],[129.2938,36.7176],[129.2871,36.7195],[129.2809,36.7236],[129.2714,36.7254],[129.27,36.7323],[129.2731,36.7378],[129.273,36.7451],[129.2847,36.752],[129.2952,36.754],[129.2982,36.7575],[129.2958,36.7657],[129.2984,36.7716],[129.3029,36.7764],[129.3117,36.7756],[129.3135,36.7809],[129.3117,36.7863],[129.3067,36.7923],[129.3006,36.7936],[129.2892,36.8082],[129.2919,36.8211],[129.2949,36.8249],[129.2875,36.8316],[129.2832,36.8334],[129.2729,36.8336],[129.2707,36.8407],[129.2767,36.8465],[129.2747,36.8501],[129.2756,36.8591],[129.2855,36.8645],[129.2787,36.8743],[129.2719,36.8715],[129.2673,36.8727],[129.261,36.8701],[129.2569,36.873],[129.2552,36.8604],[129.2477,36.8528],[129.2398,36.8519],[129.231,36.8539],[129.2381,36.8629],[129.2336,36.867],[129.2275,36.8679],[129.2174,36.864],[129.2105,36.8634],[129.2014,36.8654],[129.1959,36.87],[129.1956,36.8752],[129.1902,36.8798],[129.1769,36.8789],[129.17,36.8814],[129.1657,36.8794],[129.1657,36.8753],[129.1585,36.8751],[129.1551,36.8782],[129.1541,36.8751],[129.1383,36.8729],[129.1294,36.865],[129.1283,36.8585],[129.1249,36.8572],[129.122,36.848],[129.1162,36.8445],[129.1032,36.8359],[129.1008,36.8297],[129.0964,36.8268],[129.0888,36.8249],[129.0802,36.8189],[129.0772,36.8205],[129.0687,36.8206],[129.064,36.8183],[129.0621,36.813],[129.0527,36.8062],[129.0479,36.8],[129.0374,36.7943],[129.0369,36.7909],[129.0274,36.7853],[129.0215,36.7836],[129.0166,36.7845],[129.0074,36.7799],[129.0007,36.7805],[128.9901,36.777],[128.9841,36.7729],[128.9836,36.7655],[128.9922,36.7547],[128.9893,36.7507],[128.9902,36.7471],[128.9896,36.7383],[128.9874,36.7356],[128.9972,36.7274],[128.9961,36.7226],[128.9995,36.719],[128.9995,36.7144],[128.9964,36.7061],[128.9974,36.6954],[128.9927,36.6928],[128.9918,36.6889],[128.9945,36.6815],[128.9902,36.6742],[128.9937,36.6695],[128.9905,36.664],[128.9952,36.6618],[128.9964,36.6552],[128.9899,36.648],[128.9947,36.6419],[128.9916,36.6364],[128.9911,36.6234],[128.9966,36.6185],[128.9978,36.6119],[128.9961,36.6088],[128.9997,36.6008],[128.999,36.5935],[129.0037,36.5946],[129.0087,36.5897],[129.0224,36.5879],[129.0246,36.5897],[129.032,36.5881],[129.0368,36.5822],[129.0462,36.58],[129.0459,36.5736],[129.0521,36.5588],[129.0598,36.5553],[129.0654,36.55],[129.065,36.5463],[129.0699,36.543],[129.0753,36.5464],[129.0863,36.5435],[129.0967,36.5441],[129.1001,36.5428],[129.1082,36.5461],[129.1118,36.5398],[129.1183,36.5385],[129.1224,36.5351],[129.1287,36.5338],[129.1311,36.5267],[129.1268,36.5221],[129.1305,36.5185],[129.1278,36.5131],[129.1316,36.5071],[129.1328,36.5009],[129.1443,36.499],[129.1521,36.5003],[129.1613,36.5041],[129.1696,36.5055],[129.1733,36.5077],[129.182,36.5074],[129.1884,36.4997],[129.1929,36.5033],[129.1976,36.5011],[129.2049,36.5025],[129.2158,36.4989],[129.2181,36.4905],[129.2224,36.4901],[129.2266,36.4944],[129.2228,36.5036],[129.2259,36.5137],[129.244,36.5087],[129.2477,36.5102],[129.2461,36.5157],[129.2385,36.5231],[129.2357,36.5296],[129.2377,36.5421],[129.2398,36.5457],[129.2393,36.5536],[129.2422,36.5599],[129.2474,36.5598],[129.2434,36.567],[129.2369,36.5695],[129.2325,36.5774],[129.2308,36.5841],[129.2212,36.5856],[129.2166,36.5902],[129.2217,36.5998],[129.2311,36.6052],[129.2288,36.6235],[129.2401,36.6296],[129.2387,36.6361],[129.2349,36.6423],[129.2307,36.6443],[129.2307,36.6535],[129.2347,36.6628],[129.2398,36.6637],[129.254,36.6712],[129.2606,36.669],[129.2689,36.6737],[129.2715,36.6773],[129.2788,36.6811],[129.2769,36.6916]]]},"properties":{"sigun":"영양군"}},
{"type":"Feature","geometry":{"type":"Polygon","coordinates":[[[129.4362,36.471],[129.4332,36.4761],[129.4343,36.4832],[129.4452,36.4887],[129.4482,36.5054],[129.4526,36.5061],[129.4501,36.5127],[129.4442,36.5123],[129.4448,36.519],[129.4407,36.5302],[129.4401,36.5402],[129.4407,36.5518],[129.437,36.5568],[129.4264,36.5661],[129.4175,36.5766],[129.4132,36.5845],[129.4106,36.5947],[129.4147,36.5997],[129.4161,36.605],[129.4126,36.6163],[129.4122,36.6224],[129.4173,36.6306],[129.4183,36.6399],[129.4238,36.6433],[129.4197,36.6446],[129.4194,36.6503],[129.411,36.6547],[129.4067,36.6592],[129.3968,36.6614],[129.3969,36.6655],[129.3918,36.6663],[129.3846,36.6702],[129.3707,36.6627],[129.367,36.663],[129.361,36.6587],[129.3546,36.651],[129.3486,36.657],[129.3374,36.6606],[129.3307,36.6612],[129.3268,36.6666],[129.3175,36.6655],[129.3068,36.6683],[129.2977,36.6685],[129.2948,36.6702],[129.2851,36.6675],[129.274,36.6706],[129.2689,36.6737],[129.2606,36.669],[129.254,36.6712],[129.2398,36.6637],[129.2347,36.6628],[129.2307,36.6535],[129.2307,36.6443],[129.2349,36.6423],[129.2387,36.6361],[129.2401,36.6296],[129.2288,36.6235],[129.2311,36.6052],[129.2217,36.5998],[129.2166,36.5902],[129.2212,36.5856],[129.2308,36.5841],[129.2325,36.5774],[129.2369,36.5695],[129.2434,36.567],[129.2474,36.5598],[129.2422,36.5599],[129.2393,36.5536],[129.2398,36.5457],[129.2377,36.5421],[129.2357,36.5296],[129.2385,36.5231],[129.2461,36.5157],[129.2477,36.5102],[129.244,36.5087],[129.2259,36.5137],[129.2228,36.5036],[129.2266,36.4944],[129.2224,36.4901],[129.2181,36.4905],[129.2158,36.4989],[129.2049,36.5025],[129.1976,36.5011],[129.1929,36.5033],[129.1884,36.4997],[129.182,36.5074],[129.1733,36.5077],[129.1696,36.5055],[129.1613,36.5041],[129.1521,36.5003],[129.154,36.4929],[129.1479,36.4778],[129.1528,36.4669],[129.1619,36.4582],[129.1612,36.4537],[129.1691,36.4464],[129.1686,36.4415],[129.1715,36.4344],[129.1867,36.4269],[129.1981,36.4303],[129.2089,36.4212],[129.2119,36.4133],[129.212,36.4077],[129.2266,36.3988],[129.2281,36.3959],[129.2225,36.3919],[129.2207,36.3866],[129.2263,36.3836],[129.2279,36.3799],[129.2188,36.3731],[129.2162,36.361],[129.2201,36.3591],[129.2241,36.3465],[129.2281,36.3439],[129.2359,36.344],[129.243,36.346],[129.2514,36.3389],[129.2599,36.3335],[129.2553,36.3237],[129.2519,36.3209],[129.2667,36.3208],[129.2675,36.33],[129.2758,36.3278],[129.2873,36.3325],[129.2917,36.3247],[129.3017,36.3181],[129.3002,36.3073],[129.2865,36.2984],[129.2879,36.2889],[129.2866,36.2861],[129.2922,36.2791],[129.2934,36.2764],[129.3001,36.2736],[129.3044,36.2677],[129.3142,36.2709],[129.3284,36.2675],[129.3394,36.2667],[129.3443,36.2703],[129.3477,36.2698],[129.3535,36.2731],[129.3629,36.271],[129.3661,36.2686],[129.3763,36.2683],[129.3816,36.2749],[129.3782,36.2784],[129.375,36.2887],[129.3796,36.2906],[129.3801,36.2996],[129.3778,36.3053],[129.3804,36.3089],[129.3798,36.3181],[129.3827,36.3221],[129.3795,36.333],[129.3805,36.3345],[129.3835,36.3362],[129.3844,36.3417],[129.3898,36.3476],[129.3894,36.3568],[129.3937,36.3578],[129.3959,36.3658],[129.408,36.3815],[129.4084,36.388],[129.4137,36.39],[129.4207,36.3986],[129.4252,36.4056],[129.4306,36.4096],[129.4314,36.4161],[129.4355,36.4235],[129.4364,36.4289],[129.4339,36.437],[129.437,36.447],[129.4355,36.4533],[129.438,36.4629],[129.4362,36.471]]]},"properties":{"sigun":"영덕군"}},
{"type":"Feature","geometry":{"type":"Polygon","coordinates":[[[128.7153,35.7208],[128.7108,35.7311],[128.7048,35.7353],[128.7019,35.7437],[128.6944,35.7439],[128.6895,35.7399],[128.6918,35.7323],[128.683,35.7255],[128.6834,35.7218],[128.6637,35.7206],[128.6582,35.7185],[128.6462,35.7084],[128.6377,35.7058],[128.6308,35.707],[128.6231,35.7034],[128.6207,35.7043],[128.614,35.7106],[128.6164,35.7198],[128.6103,35.7253],[128.6154,35.7304],[128.6167,35.7371],[128.6066,35.7389],[128.5962,35.7371],[128.5893,35.7319],[128.5819,35.7388],[128.5717,35.7346],[128.5662,35.7365],[128.5595,35.7286],[128.5524,35.7262],[128.5441,35.7193],[128.5289,35.7139],[128.5324,35.7055],[128.5315,35.6968],[128.5351,35.694],[128.5315,35.6881],[128.5335,35.6821],[128.5285,35.6795],[128.5264,35.6742],[128.5315,35.6622],[128.5369,35.661],[128.5383,35.6549],[128.5347,35.6438],[128.5382,35.632],[128.5365,35.6237],[128.5505,35.617],[128.558,35.6149],[128.5597,35.6033],[128.5645,35.6025],[128.5723,35.5975],[128.5743,35.5922],[128.5848,35.5862],[128.5937,35.5845],[128.6012,35.5808],[128.6068,35.5804],[128.6176,35.5844],[128.6266,35.5848],[128.6311,35.5867],[128.6359,35.5841],[128.6436,35.5923],[128.658,35.5977],[128.6635,35.5946],[128.6725,35.5959],[128.6913,35.5944],[128.6962,35.5829],[128.7033,35.5785],[128.7125,35.5796],[128.7166,35.5784],[128.7251,35.5806],[128.7311,35.5762],[128.7359,35.5766],[128.7539,35.5702],[128.7559,35.5682],[128.7663,35.5682],[128.7681,35.5705],[128.7868,35.5661],[128.7961,35.5735],[128.8005,35.5854],[128.8022,35.5885],[128.811,35.5893],[128.8213,35.5936],[128.8236,35.5963],[128.8335,35.5974],[128.843,35.5891],[128.8535,35.5964],[128.8591,35.6067],[128.8656,35.6108],[128.8676,35.616],[128.8724,35.6211],[128.8747,35.6349],[128.8826,35.6347],[128.8856,35.6298],[128.8917,35.6303],[128.9074,35.6351],[128.9118,35.6379],[128.9149,35.6454],[128.9231,35.6468],[128.9231,35.6379],[128.931,35.6343],[128.9409,35.6331],[128.9491,35.6287],[128.9553,35.6221],[128.9603,35.6193],[128.96,35.6153],[128.9721,35.6138],[128.9818,35.6076],[128.9857,35.6079],[128.9997,35.6166],[129.0043,35.6207],[129.0077,35.6268],[129.0176,35.6309],[129.021,35.6356],[129.0271,35.6363],[129.035,35.632],[129.0439,35.6414],[129.0473,35.6501],[129.0403,35.6582],[129.0397,35.6666],[129.0344,35.6762],[129.0361,35.6777],[129.0379,35.6875],[129.0325,35.6905],[129.0195,35.6882],[129.0039,35.6977],[129.005,35.7048],[128.9967,35.7126],[128.997,35.7174],[128.9913,35.7193],[128.9898,35.7235],[128.978,35.7342],[128.9727,35.7369],[128.9742,35.7478],[128.9699,35.7528],[128.9746,35.7601],[128.9742,35.7701],[128.9876,35.7724],[128.9876,35.7855],[128.993,35.7954],[128.9905,35.8005],[128.9972,35.8064],[129.0034,35.8164],[129.0043,35.8233],[129.0083,35.8319],[129.0138,35.8356],[129.0164,35.8406],[129.0141,35.8462],[129.0003,35.8422],[128.9893,35.8378],[128.9866,35.8344],[128.9777,35.8329],[128.9708,35.8354],[128.9659,35.8345],[128.9599,35.8233],[128.9544,35.8112],[128.9556,35.8028],[128.9509,35.7982],[128.9497,35.7933],[128.9447,35.7868],[128.9463,35.7815],[128.9419,35.7771],[128.9404,35.7711],[128.9345,35.7613],[128.9261,35.7555],[128.9141,35.7581],[128.9035,35.7469],[128.8987,35.7616],[128.8948,35.7638],[128.8916,35.7548],[128.8865,35.7512],[128.8762,35.748],[128.8665,35.758],[128.8604,35.7552],[128.8567,35.7573],[128.8546,35.7539],[128.8584,35.7474],[128.855,35.7438],[128.849,35.7412],[128.837,35.7452],[128.8271,35.7384],[128.8155,35.7432],[128.8104,35.7401],[128.8009,35.745],[128.7988,35.7431],[128.7893,35.7423],[128.7843,35.7348],[128.7844,35.7315],[128.7747,35.7294],[128.774,35.7213],[128.7644,35.7161],[128.7628,35.7085],[128.7662,35.7068],[128.7656,35.7004],[128.7539,35.7006],[128.7436,35.7039],[128.7376,35.709],[128.7361,35.7163],[128.7311,35.7201],[128.7222,35.7192],[128.7153,35.7208]]]},"properties":{"sigun":"청도군"}},
{"type":"Feature","geometry":{"type":"Polygon","coordinates":[[[128.1979,35.7367],[128.1967,35.7305],[128.2016,35.7228],[128.2008,35.7178],[128.203,35.7121],[128.2011,35.7061],[128.2045,35.6974],[128.202,35.6914],[128.2042,35.6887],[128.2016,35.6841],[128.1944,35.6844],[128.1842,35.6783],[128.1793,35.673],[128.1668,35.6739],[128.1626,35.6718],[128.1599,35.6657],[128.1614,35.661],[128.1577,35.6578],[128.1637,35.6535],[128.1841,35.6585],[128.1914,35.6552],[128.1989,35.6492],[128.2011,35.6438],[128.2103,35.6444],[128.2115,35.6415],[128.228,35.6397],[128.2357,35.6407],[128.2375,35.6443],[128.2359,35.6514],[128.2439,35.6555],[128.2489,35.6511],[128.2583,35.6476],[128.2611,35.6427],[128.2671,35.6453],[128.2767,35.6467],[128.2784,35.6518],[128.2886,35.6524],[128.2962,35.6505],[128.2973,35.6562],[128.306,35.6551],[128.3182,35.6509],[128.3237,35.646],[128.3293,35.6482],[128.3409,35.6442],[128.3492,35.6464],[128.3549,35.6425],[128.3631,35.6286],[128.3638,35.6214],[128.3623,35.6119],[128.3776,35.6106],[128.3861,35.6124],[128.3964,35.628],[128.4017,35.6321],[128.4029,35.6419],[128.3963,35.6481],[128.3816,35.6553],[128.3635,35.671],[128.3588,35.6769],[128.3541,35.6838],[128.3507,35.6942],[128.351,35.7029],[128.3597,35.7075],[128.3752,35.7025],[128.3878,35.7011],[128.3949,35.6979],[128.4099,35.6942],[128.4178,35.6931],[128.4224,35.695],[128.4332,35.703],[128.435,35.7095],[128.4325,35.7254],[128.4287,35.7293],[128.4166,35.7366],[128.4062,35.7389],[128.3926,35.7455],[128.386,35.755],[128.3864,35.7633],[128.394,35.7715],[128.4023,35.7844],[128.4074,35.7965],[128.4203,35.8094],[128.4399,35.8085],[128.4527,35.8094],[128.4676,35.8083],[128.476,35.8117],[128.4802,35.8173],[128.4807,35.8222],[128.4772,35.8275],[128.4601,35.8413],[128.4228,35.8513],[128.4165,35.8514],[128.3982,35.8494],[128.3901,35.8504],[128.3897,35.843],[128.3917,35.8384],[128.3826,35.8381],[128.3765,35.8361],[128.3807,35.8222],[128.3708,35.8132],[128.3694,35.8104],[128.3689,35.7935],[128.3676,35.7925],[128.3644,35.7923],[128.3505,35.7991],[128.3435,35.7961],[128.3379,35.7969],[128.3362,35.7999],[128.3268,35.8075],[128.321,35.8102],[128.3192,35.8138],[128.3064,35.8123],[128.3003,35.8154],[128.2925,35.8237],[128.2803,35.8272],[128.2754,35.8257],[128.2738,35.8221],[128.2749,35.809],[128.2729,35.8057],[128.2758,35.7914],[128.2726,35.79],[128.2647,35.7948],[128.2598,35.7945],[128.2517,35.7881],[128.2532,35.7804],[128.2397,35.7822],[128.2329,35.7877],[128.2249,35.788],[128.2183,35.792],[128.2146,35.7995],[128.2168,35.8025],[128.2129,35.8074],[128.2137,35.8102],[128.2086,35.8155],[128.1999,35.8154],[128.1884,35.8198],[128.1771,35.8187],[128.1688,35.8153],[128.1601,35.8085],[128.1657,35.801],[128.1711,35.7983],[128.1735,35.7931],[128.1791,35.7883],[128.1755,35.7865],[128.1641,35.777],[128.1614,35.7697],[128.165,35.7635],[128.1893,35.7523],[128.1943,35.7382],[128.1979,35.7367]]]},"properties":{"sigun":"고령군"}},
{"type":"Feature","geometry":{"type":"Polygon","coordinates":[[[128.3478,35.9547],[128.3405,35.9637],[128.3427,35.9676],[128.3393,35.9699],[128.3391,35.9758],[128.3299,35.9777],[128.3193,35.9826],[128.3145,35.9893],[128.3113,36.0063],[128.312,36.0141],[128.3177,36.0186],[128.3119,36.0227],[128.3107,36.0281],[128.3046,36.0305],[128.2965,36.0305],[128.2902,36.0392],[128.2891,36.043],[128.2841,36.0466],[128.2693,36.0487],[128.2606,36.0485],[128.2569,36.0514],[128.2511,36.0492],[128.2423,36.0482],[128.2308,36.0541],[128.224,36.0556],[128.2221,36.0522],[128.2088,36.0449],[128.2018,36.0455],[128.1971,36.0439],[128.196,36.0335],[128.1942,36.032],[128.1826,36.0329],[128.1785,36.0314],[128.1695,36.0356],[128.1646,36.0326],[128.1674,36.0297],[128.1692,36.0184],[128.1731,36.0141],[128.1688,36.0109],[128.1656,36.0014],[128.1698,35.9969],[128.1675,35.9893],[128.1577,35.9873],[128.1558,35.9789],[128.1517,35.9768],[128.1508,35.9664],[128.1319,35.959],[128.1232,35.9623],[128.1191,35.9596],[128.1117,35.9642],[128.109,35.9629],[128.104,35.9575],[128.0963,35.9548],[128.0885,35.9457],[128.091,35.9372],[128.0913,35.9309],[128.0881,35.9224],[128.084,35.9219],[128.0791,35.9266],[128.0734,35.9285],[128.0714,35.9362],[128.0664,35.9369],[128.0567,35.9417],[128.0516,35.9382],[128.0467,35.9322],[128.0494,35.9186],[128.054,35.9157],[128.0554,35.9108],[128.0604,35.9074],[128.0568,35.9038],[128.0639,35.8991],[128.0677,35.887],[128.0709,35.8806],[128.0811,35.8729],[128.0873,35.8726],[128.0771,35.8612],[128.076,35.8545],[128.0729,35.8501],[128.0784,35.8431],[128.0787,35.8389],[128.0848,35.8366],[128.0907,35.8308],[128.0957,35.8326],[128.1035,35.829],[128.1087,35.8239],[128.1172,35.8258],[128.1253,35.8228],[128.1219,35.811],[128.1217,35.8036],[128.1285,35.7943],[128.1288,35.7894],[128.1398,35.784],[128.1548,35.7865],[128.1598,35.7796],[128.1641,35.777],[128.1755,35.7865],[128.1791,35.7883],[128.1735,35.7931],[128.1711,35.7983],[128.1657,35.801],[128.1601,35.8085],[128.1688,35.8153],[128.1771,35.8187],[128.1884,35.8198],[128.1999,35.8154],[128.2086,35.8155],[128.2137,35.8102],[128.2129,35.8074],[128.2168,35.8025],[128.2146,35.7995],[128.2183,35.792],[128.2249,35.788],[128.2329,35.7877],[128.2397,35.7822],[128.2532,35.7804],[128.2517,35.7881],[128.2598,35.7945],[128.2647,35.7948],[128.2726,35.79],[128.2758,35.7914],[128.2729,35.8057],[128.2749,35.809],[128.2738,35.8221],[128.2754,35.8257],[128.2803,35.8272],[128.2925,35.8237],[128.3003,35.8154],[128.3064,35.8123],[128.3192,35.8138],[128.321,35.8102],[128.3268,35.8075],[128.3362,35.7999],[128.3379,35.7969],[128.3435,35.7961],[128.3505,35.7991],[128.3644,35.7923],[128.3676,35.7925],[128.3689,35.7935],[128.3694,35.8104],[128.3708,35.8132],[128.3807,35.8222],[128.3765,35.8361],[128.3826,35.8381],[128.3917,35.8384],[128.3897,35.843],[128.3901,35.8504],[128.3866,35.8585],[128.3855,35.8652],[128.3873,35.8715],[128.3937,35.883],[128.404,35.91],[128.4038,35.9192],[128.4001,35.9289],[128.3977,35.9391],[128.383,35.9399],[128.3796,35.939],[128.3737,35.9423],[128.3695,35.9423],[128.3642,35.9474],[128.3647,35.9518],[128.3598,35.9562],[128.3478,35.9547]]]},"properties":{"sigun":"성주군"}},
{"type":"Feature","geometry":{"type":"Polygon","coordinates":[[[128.3937,35.883],[128.3983,35.8843],[128.4033,35.8891],[128.4105,35.9067],[128.4177,35.9162],[128.4181,35.9212],[128.4235,35.9228],[128.4249,35.9279],[128.4314,35.931],[128.437,35.9316],[128.4412,35.9348],[128.4528,35.9363],[128.4538,35.9431],[128.4625,35.9378],[128.4687,35.9384],[128.4757,35.936],[128.4766,35.9319],[128.4732,35.9229],[128.474,35.9171],[128.4669,35.9072],[128.468,35.8998],[128.4754,35.8952],[128.4782,35.8978],[128.4842,35.8948],[128.4879,35.898],[128.4926,35.8963],[128.4946,35.8913],[128.4998,35.8885],[128.5041,35.8906],[128.5052,35.903],[128.5113,35.9107],[128.5179,35.9132],[128.5233,35.9178],[128.5259,35.9223],[128.5297,35.9236],[128.5295,35.9284],[128.533,35.9315],[128.5351,35.9388],[128.5327,35.9522],[128.5346,35.9584],[128.5305,35.9625],[128.527,35.9758],[128.5288,35.9805],[128.5369,35.978],[128.5423,35.9747],[128.5462,35.966],[128.5496,35.9623],[128.556,35.9657],[128.5562,35.9706],[128.5642,35.9729],[128.572,35.9777],[128.5832,35.9774],[128.5909,35.9791],[128.5936,35.9828],[128.603,35.9862],[128.6172,36.0051],[128.6247,36.0077],[128.6388,36.0092],[128.6372,36.0171],[128.6258,36.022],[128.6213,36.0258],[128.623,36.0371],[128.6264,36.0422],[128.6293,36.0512],[128.6278,36.0682],[128.6304,36.0774],[128.6227,36.0795],[128.6144,36.079],[128.6099,36.0761],[128.5979,36.0758],[128.5947,36.0731],[128.58,36.0678],[128.5765,36.0638],[128.5692,36.0607],[128.5635,36.0726],[128.5687,36.0898],[128.567,36.0968],[128.5635,36.1022],[128.5648,36.1099],[128.5631,36.1117],[128.5598,36.1092],[128.5522,36.1102],[128.5481,36.1089],[128.5431,36.1122],[128.5396,36.1101],[128.5348,36.1124],[128.5264,36.1115],[128.5197,36.1147],[128.5083,36.1107],[128.4967,36.1158],[128.4944,36.1242],[128.4911,36.1217],[128.4891,36.1153],[128.4827,36.1103],[128.4788,36.105],[128.4795,36.1015],[128.4754,36.0987],[128.4769,36.0928],[128.4746,36.0898],[128.465,36.0833],[128.4634,36.0792],[128.4688,36.0727],[128.4627,36.0697],[128.4535,36.0724],[128.4435,36.0788],[128.4293,36.0803],[128.4235,36.0869],[128.4157,36.0826],[128.4085,36.0833],[128.4037,36.0919],[128.3982,36.0922],[128.3984,36.0904],[128.3826,36.074],[128.385,36.0702],[128.3786,36.0655],[128.3711,36.0661],[128.3615,36.0607],[128.347,36.0717],[128.3453,36.0769],[128.3409,36.0817],[128.3361,36.0822],[128.3306,36.0915],[128.3214,36.0918],[128.306,36.086],[128.2977,36.0876],[128.2932,36.091],[128.2849,36.0811],[128.2899,36.0763],[128.3008,36.0626],[128.2986,36.0516],[128.2931,36.0501],[128.2891,36.043],[128.2902,36.0392],[128.2965,36.0305],[128.3046,36.0305],[128.3107,36.0281],[128.3119,36.0227],[128.3177,36.0186],[128.312,36.0141],[128.3113,36.0063],[128.3145,35.9893],[128.3193,35.9826],[128.3299,35.9777],[128.3391,35.9758],[128.3393,35.9699],[128.3427,35.9676],[128.3405,35.9637],[128.3478,35.9547],[128.3598,35.9562],[128.3647,35.9518],[128.3642,35.9474],[128.3695,35.9423],[128.3737,35.9423],[128.3796,35.939],[128.383,35.9399],[128.3977,35.9391],[128.4001,35.9289],[128.4038,35.9192],[128.404,35.91],[128.3937,35.883]]]},"properties":{"sigun":"칠곡군"}},
{"type":"Feature","geometry":{"type":"Polygon","coordinates":[[[128.3362,36.6936],[128.3308,36.6851],[128.3204,36.6783],[128.3264,36.6688],[128.3324,36.6673],[128.3343,36.6616],[128.3415,36.6562],[128.3491,36.6548],[128.3479,36.6472],[128.3435,36.647],[128.3333,36.6407],[128.3256,36.6441],[128.3203,36.6445],[128.319,36.6552],[128.3096,36.6563],[128.3074,36.6539],[128.3096,36.6411],[128.3063,36.6361],[128.2935,36.6324],[128.2896,36.6295],[128.2836,36.6172],[128.2758,36.6154],[128.2718,36.6099],[128.2619,36.611],[128.2666,36.6028],[128.2716,36.6],[128.2801,36.5909],[128.2855,36.5781],[128.295,36.5787],[128.2961,36.5748],[128.296,36.5639],[128.2949,36.5588],[128.2977,36.5531],[128.279,36.5517],[128.2702,36.5521],[128.2651,36.5503],[128.2633,36.5424],[128.2686,36.533],[128.2653,36.5239],[128.2661,36.5135],[128.2644,36.5075],[128.2689,36.5001],[128.2706,36.4927],[128.2699,36.4827],[128.2603,36.4783],[128.2653,36.4761],[128.2703,36.477],[128.2781,36.4725],[128.2805,36.4637],[128.2892,36.4623],[128.2947,36.4649],[128.299,36.4634],[128.3048,36.4573],[128.3129,36.4564],[128.3087,36.4642],[128.3144,36.4706],[128.32,36.4714],[128.3304,36.4835],[128.3374,36.4892],[128.3365,36.5006],[128.3398,36.5031],[128.3453,36.5142],[128.3408,36.5246],[128.3474,36.5272],[128.3529,36.5272],[128.3618,36.5316],[128.3661,36.5274],[128.3701,36.5146],[128.3684,36.5095],[128.3708,36.5055],[128.3818,36.5046],[128.3986,36.5089],[128.4052,36.5129],[128.4136,36.5204],[128.4188,36.5224],[128.4292,36.522],[128.44,36.5281],[128.4461,36.5302],[128.4535,36.5377],[128.4645,36.5399],[128.4604,36.5465],[128.4561,36.5492],[128.4592,36.556],[128.4654,36.5604],[128.4815,36.568],[128.4925,36.5698],[128.4958,36.5824],[128.4992,36.5844],[128.4909,36.5887],[128.4939,36.5997],[128.5018,36.6059],[128.5066,36.6021],[128.5132,36.6007],[128.5295,36.6019],[128.5349,36.6142],[128.5294,36.618],[128.522,36.6196],[128.5244,36.6283],[128.5324,36.6298],[128.5397,36.6336],[128.5471,36.6324],[128.5522,36.6372],[128.5553,36.6354],[128.565,36.6406],[128.5662,36.646],[128.577,36.6499],[128.5819,36.647],[128.5867,36.6503],[128.5964,36.6525],[128.6046,36.6525],[128.6057,36.6625],[128.6032,36.6689],[128.605,36.6723],[128.6019,36.679],[128.6098,36.6858],[128.6092,36.6925],[128.6048,36.6926],[128.5998,36.7018],[128.5976,36.7028],[128.5897,36.7009],[128.589,36.7055],[128.5853,36.7091],[128.5804,36.7199],[128.5762,36.7249],[128.577,36.7299],[128.5785,36.7321],[128.569,36.7387],[128.5707,36.743],[128.5671,36.7473],[128.566,36.7526],[128.5614,36.7601],[128.5558,36.761],[128.5517,36.7654],[128.5419,36.7676],[128.5366,36.7734],[128.5301,36.7709],[128.5153,36.7696],[128.5064,36.7638],[128.4991,36.7649],[128.4957,36.7696],[128.4822,36.7767],[128.4748,36.7767],[128.4743,36.7817],[128.4765,36.7866],[128.4741,36.7998],[128.471,36.8035],[128.4743,36.8169],[128.4771,36.8182],[128.4783,36.824],[128.4825,36.8299],[128.4813,36.8349],[128.4621,36.8468],[128.4593,36.8456],[128.4491,36.8489],[128.4468,36.8436],[128.4415,36.8377],[128.4343,36.834],[128.4317,36.8241],[128.4257,36.819],[128.4252,36.8151],[128.4206,36.8114],[128.4131,36.8111],[128.4003,36.8127],[128.3941,36.8154],[128.3818,36.814],[128.3735,36.8076],[128.3666,36.8006],[128.3696,36.7947],[128.3674,36.7917],[128.366,36.7783],[128.3642,36.775],[128.3677,36.7675],[128.3628,36.7608],[128.3697,36.7507],[128.3596,36.7402],[128.3386,36.7408],[128.3331,36.7321],[128.3314,36.7205],[128.3373,36.7094],[128.3352,36.7037],[128.3311,36.6995],[128.3362,36.6936]]]},"properties":{"sigun":"예천군"}},
{"type":"Feature","geometry":{"type":"Polygon","coordinates":[[[128.7366,36.8442],[128.7367,36.8393],[128.7259,36.831],[128.7186,36.8293],[128.7183,36.8247],[128.7276,36.8188],[128.7273,36.8111],[128.7212,36.8008],[128.7256,36.7928],[128.7321,36.7916],[128.736,36.8019],[128.7434,36.7961],[128.7465,36.8071],[128.755,36.8075],[128.7587,36.81],[128.7662,36.8028],[128.7705,36.8058],[128.777,36.8051],[128.7821,36.8096],[128.7942,36.8149],[128.8014,36.823],[128.8064,36.8206],[128.8031,36.8107],[128.8034,36.8062],[128.8124,36.7955],[128.8178,36.8003],[128.8206,36.8055],[128.8195,36.8097],[128.8412,36.8092],[128.8434,36.8035],[128.8553,36.8019],[128.8639,36.7987],[128.8644,36.7944],[128.8748,36.7849],[128.8846,36.784],[128.886,36.7781],[128.8914,36.7735],[128.8995,36.7735],[128.9043,36.7753],[128.9126,36.7739],[128.9206,36.7673],[128.926,36.7691],[128.9313,36.7679],[128.9424,36.7738],[128.9546,36.7703],[128.9588,36.7655],[128.964,36.7522],[128.9698,36.7472],[128.9825,36.7461],[128.9902,36.7471],[128.9893,36.7507],[128.9922,36.7547],[128.9836,36.7655],[128.9841,36.7729],[128.9901,36.777],[129.0007,36.7805],[129.0074,36.7799],[129.0166,36.7845],[129.0215,36.7836],[129.0274,36.7853],[129.0369,36.7909],[129.0374,36.7943],[129.0479,36.8],[129.0527,36.8062],[129.0621,36.813],[129.064,36.8183],[129.0687,36.8206],[129.0772,36.8205],[129.0802,36.8189],[129.0888,36.8249],[129.0964,36.8268],[129.1008,36.8297],[129.1032,36.8359],[129.1162,36.8445],[129.122,36.848],[129.1249,36.8572],[129.1283,36.8585],[129.1294,36.865],[129.1383,36.8729],[129.1541,36.8751],[129.1551,36.8782],[129.1555,36.8877],[129.1488,36.8909],[129.1487,36.8965],[129.1448,36.8985],[129.1484,36.9052],[129.1473,36.912],[129.1431,36.9202],[129.1382,36.922],[129.1366,36.927],[129.1252,36.93],[129.1232,36.9337],[129.1182,36.9356],[129.1119,36.9337],[129.1051,36.9375],[129.1081,36.9431],[129.0962,36.9461],[129.0911,36.9449],[129.0839,36.9549],[129.0779,36.9587],[129.0838,36.9634],[129.0915,36.9626],[129.0919,36.9701],[129.0947,36.9782],[129.0903,36.984],[129.0929,36.9885],[129.0909,36.9976],[129.0918,37.0029],[129.095,37.0075],[129.089,37.0109],[129.0975,37.0177],[129.1024,37.0189],[129.1084,37.025],[129.1191,37.0303],[129.1262,37.03],[129.1334,37.0345],[129.1397,37.0329],[129.1498,37.0235],[129.1547,37.0232],[129.1597,37.0196],[129.1671,37.0218],[129.1764,37.0287],[129.1801,37.0359],[129.1854,37.0421],[129.1854,37.0468],[129.1761,37.0576],[129.171,37.0601],[129.1652,37.0698],[129.1552,37.07],[129.1493,37.0759],[129.1445,37.0764],[129.1407,37.0817],[129.1346,37.0813],[129.1274,37.0848],[129.1274,37.0889],[129.1188,37.0929],[129.1086,37.0935],[129.1043,37.0983],[129.0958,37.1005],[129.0821,37.094],[129.0729,37.0909],[129.0709,37.0841],[129.0658,37.0784],[129.0678,37.0743],[129.0617,37.0656],[129.0533,37.0696],[129.0503,37.0684],[129.0343,37.0758],[129.0144,37.0791],[129.0084,37.0787],[128.9952,37.0812],[128.9931,37.0846],[128.9835,37.0845],[128.9771,37.082],[128.9696,37.0821],[128.9603,37.0774],[128.9531,37.0816],[128.9533,37.0849],[128.9446,37.0951],[128.9205,37.0907],[128.9167,37.0849],[128.9168,37.0787],[128.9098,37.0705],[128.9097,37.0669],[128.8974,37.0579],[128.896,37.0552],[128.8957,37.0449],[128.8887,37.0471],[128.8852,37.051],[128.8776,37.0526],[128.8764,37.0462],[128.8727,37.0446],[128.8664,37.0483],[128.8572,37.0493],[128.8466,37.0522],[128.8362,37.0664],[128.8322,37.0678],[128.8325,37.0756],[128.827,37.0781],[128.8133,37.0788],[128.8086,37.0775],[128.8029,37.0854],[128.7983,37.0869],[128.7851,37.0877],[128.7798,37.0923],[128.7732,37.0874],[128.7775,37.083],[128.7687,37.0724],[128.765,37.064],[128.7571,37.0701],[128.752,37.0575],[128.7525,37.0545],[128.7608,37.0435],[128.7617,37.0352],[128.7545,37.032],[128.7514,37.0283],[128.7347,37.0401],[128.7186,37.044],[128.7125,37.0425],[128.7089,37.0392],[128.7023,37.0322],[128.7001,37.0248],[128.7014,37.0129],[128.6929,37.0039],[128.6942,36.9984],[128.692,36.9916],[128.6902,36.9793],[128.693,36.9738],[128.6869,36.9689],[128.6863,36.9598],[128.6814,36.9534],[128.6782,36.9537],[128.6752,36.9457],[128.6666,36.9424],[128.6617,36.938],[128.6601,36.9284],[128.6684,36.9198],[128.6592,36.9102],[128.6545,36.9115],[128.6491,36.9095],[128.6428,36.8961],[128.6374,36.8877],[128.6444,36.8801],[128.6501,36.8779],[128.6553,36.8726],[128.6558,36.8692],[128.6443,36.8634],[128.6433,36.8556],[128.6552,36.8526],[128.6599,36.8495],[128.6641,36.8416],[128.6694,36.8434],[128.6779,36.8503],[128.6772,36.8556],[128.6815,36.8575],[128.6862,36.8633],[128.7014,36.8607],[128.7054,36.8671],[128.7147,36.8645],[128.7199,36.8677],[128.7286,36.8627],[128.7256,36.8604],[128.7324,36.8469],[128.7366,36.8442]]]},"properties":{"sigun":"봉화군"}},
{"type":"Feature","geometry":{"type":"Polygon","coordinates":[[[129.4102,37.0306],[129.4158,37.0355],[129.4133,37.0479],[129.4156,37.0545],[129.4186,37.0568],[129.43,37.0585],[129.4272,37.064],[129.4032,37.0789],[129.3961,37.084],[129.3936,37.0881],[129.3796,37.1002],[129.3764,37.1103],[129.3815,37.1202],[129.3737,37.125],[129.3734,37.1352],[129.3665,37.145],[129.348,37.1465],[129.339,37.1448],[129.3336,37.1418],[129.3247,37.1417],[129.3207,37.1358],[129.312,37.1319],[129.3091,37.1282],[129.3048,37.1281],[129.2982,37.1245],[129.2952,37.1203],[129.2945,37.1144],[129.2883,37.115],[129.2767,37.1187],[129.272,37.117],[129.2697,37.1075],[129.2661,37.1023],[129.2597,37.1007],[129.2496,37.0959],[129.2413,37.0857],[129.2256,37.0734],[129.231,37.0693],[129.2332,37.0642],[129.2294,37.0559],[129.233,37.0499],[129.2332,37.0441],[129.2381,37.0388],[129.2251,37.0445],[129.2135,37.0427],[129.205,37.0449],[129.1946,37.0406],[129.1854,37.0421],[129.1801,37.0359],[129.1764,37.0287],[129.1671,37.0218],[129.1597,37.0196],[129.1547,37.0232],[129.1498,37.0235],[129.1397,37.0329],[129.1334,37.0345],[129.1262,37.03],[129.1191,37.0303],[129.1084,37.025],[129.1024,37.0189],[129.0975,37.0177],[129.089,37.0109],[129.095,37.0075],[129.0918,37.0029],[129.0909,36.9976],[129.0929,36.9885],[129.0903,36.984],[129.0947,36.9782],[129.0919,36.9701],[129.0915,36.9626],[129.0838,36.9634],[129.0779,36.9587],[129.0839,36.9549],[129.0911,36.9449],[129.0962,36.9461],[129.1081,36.9431],[129.1051,36.9375],[129.1119,36.9337],[129.1182,36.9356],[129.1232,36.9337],[129.1252,36.93],[129.1366,36.927],[129.1382,36.922],[129.1431,36.9202],[129.1473,36.912],[129.1484,36.9052],[129.1448,36.8985],[129.1487,36.8965],[129.1488,36.8909],[129.1555,36.8877],[129.1551,36.8782],[129.1585,36.8751],[129.1657,36.8753],[129.1657,36.8794],[129.17,36.8814],[129.1769,36.8789],[129.1902,36.8798],[129.1956,36.8752],[129.1959,36.87],[129.2014,36.8654],[129.2105,36.8634],[129.2174,36.864],[129.2275,36.8679],[129.2336,36.867],[129.2381,36.8629],[129.231,36.8539],[129.2398,36.8519],[129.2477,36.8528],[129.2552,36.8604],[129.2569,36.873],[129.261,36.8701],[129.2673,36.8727],[129.2719,36.8715],[129.2787,36.8743],[129.2855,36.8645],[129.2756,36.8591],[129.2747,36.8501],[129.2767,36.8465],[129.2707,36.8407],[129.2729,36.8336],[129.2832,36.8334],[129.2875,36.8316],[129.2949,36.8249],[129.2919,36.8211],[129.2892,36.8082],[129.3006,36.7936],[129.3067,36.7923],[129.3117,36.7863],[129.3135,36.7809],[129.3117,36.7756],[129.3029,36.7764],[129.2984,36.7716],[129.2958,36.7657],[129.2982,36.7575],[129.2952,36.754],[129.2847,36.752],[129.273,36.7451],[129.2731,36.7378],[129.27,36.7323],[129.2714,36.7254],[129.2809,36.7236],[129.2871,36.7195],[129.2938,36.7176],[129.2863,36.7084],[129.2866,36.7024],[129.2822,36.6981],[129.2814,36.6936],[129.2769,36.6916],[129.2788,36.6811],[129.2715,36.6773],[129.2689,36.6737],[129.274,36.6706],[129.2851,36.6675],[129.2948,36.6702],[129.2977,36.6685],[129.3068,36.6683],[129.3175,36.6655],[129.3268,36.6666],[129.3307,36.6612],[129.3374,36.6606],[129.3486,36.657],[129.3546,36.651],[129.361,36.6587],[129.367,36.663],[129.3707,36.6627],[129.3846,36.6702],[129.3918,36.6663],[129.3969,36.6655],[129.3968,36.6614],[129.4067,36.6592],[129.411,36.6547],[129.4194,36.6503],[129.4197,36.6446],[129.4238,36.6433],[129.4285,36.6483],[129.4314,36.6586],[129.4374,36.6698],[129.4455,36.6767],[129.4588,36.6815],[129.4656,36.6801],[129.465,36.6861],[129.4677,36.6896],[129.469,36.6942],[129.4767,36.6996],[129.4725,36.7238],[129.478,36.7271],[129.4761,36.735],[129.4695,36.748],[129.4679,36.7572],[129.477,36.7642],[129.4789,36.7681],[129.4711,36.7792],[129.4632,36.7883],[129.4632,36.7963],[129.458,36.8033],[129.4574,36.8154],[129.4536,36.8178],[129.4458,36.8272],[129.4464,36.8324],[129.4341,36.8434],[129.4274,36.8524],[129.4202,36.868],[129.4206,36.8708],[129.4213,36.8759],[129.4154,36.8901],[129.421,36.8984],[129.4164,36.9101],[129.4163,36.9169],[129.4203,36.9231],[129.4179,36.9307],[129.4213,36.936],[129.4199,36.9513],[129.4155,36.9616],[129.4143,36.9683],[129.4094,36.9783],[129.4089,36.9801],[129.4147,36.9891],[129.42,36.9931],[129.4191,37.0062],[129.4172,37.008],[129.4104,37.0241],[129.4102,37.0306]]]},"properties":{"sigun":"울진군"}},
{"type":"Feature","geometry":{"type":"Polygon","coordinates":[[[130.9091,37.5284],[130.9139,37.5356],[130.9132,37.5411],[130.9094,37.5482],[130.899,37.5468],[130.8964,37.5423],[130.8917,37.5406],[130.8815,37.5436],[130.8759,37.5429],[130.8688,37.5371],[130.8522,37.535],[130.8467,37.5362],[130.8319,37.5296],[130.8241,37.5287],[130.8135,37.5232],[130.802,37.5205],[130.8006,37.5249],[130.7961,37.5254],[130.7912,37.5192],[130.8001,37.5076],[130.8049,37.5044],[130.8011,37.4909],[130.802,37.4853],[130.8079,37.4825],[130.8092,37.4775],[130.8134,37.4742],[130.8265,37.4726],[130.8311,37.4666],[130.8383,37.4656],[130.8416,37.463],[130.8504,37.4638],[130.8548,37.4603],[130.8629,37.4609],[130.8688,37.4589],[130.8745,37.4534],[130.8756,37.4605],[130.8839,37.4709],[130.8962,37.4756],[130.9022,37.4748],[130.9069,37.4765],[130.9138,37.4871],[130.9143,37.4943],[130.9194,37.5135],[130.9176,37.5187],[130.9125,37.5207],[130.9091,37.5284]]]},"properties":{"sigun":"울릉군"}}
]}